observation_time,station_id,raw_text,latitude,longitude,temp_c,dewpoint_c,wind_dir_degrees,wind_speed_kt,wind_gust_kt,visibility_statute_mi,altim_in_hg,flight_category,sky_cover,cloud_base_ft_agl
2024-02-24T23:54:00Z,KBTV,KBTV 242354Z 04006KT 10SM CLR M09/M18 A2997 RMK AO2 SLP157 T10891183 11072 21089 53026,44.4683,-73.1499,-8.9,-18.3,40,6,,10+,29.97,VFR,clear,
2024-02-25T00:54:00Z,KBTV,KBTV 250054Z 05006KT 10SM CLR M09/M18 A2999 RMK AO2 SLP164 T10941183,44.4683,-73.1499,-9.4,-18.3,50,6,,10+,29.99,VFR,clear,
2024-02-25T01:54:00Z,KBTV,KBTV 250154Z 05003KT 10SM CLR M09/M18 A3002 RMK AO2 SLP172 T10941178,44.4683,-73.1499,-9.4,-17.8,50,3,,10+,30.02,VFR,clear,
2024-02-25T02:54:00Z,KBTV,KBTV 250254Z 00000KT 10SM CLR M11/M17 A3002 RMK AO2 SLP173 T11061172 51016,44.4683,-73.1499,-10.6,-17.2,0,0,,10+,30.02,VFR,clear,
2024-02-25T03:54:00Z,KBTV,KBTV 250354Z 00000KT 10SM CLR M11/M17 A3003 RMK AO2 SLP177 T11061172,44.4683,-73.1499,-10.6,-17.2,0,0,,10+,30.03,VFR,clear,
2024-02-25T04:54:00Z,KBTV,KBTV 250454Z 09003KT 10SM CLR M11/M17 A3004 RMK AO2 SLP180 /LAST/ T11061167 410171122,44.4683,-73.1499,-10.6,-16.7,90,3,,10+,30.04,VFR,clear,
2024-02-25T05:54:00Z,KBTV,KBTV 250554Z 13004KT 10SM CLR M11/M16 A3005 RMK AO2 SLP183 T11111161 11089 21117 52010,44.4683,-73.1499,-11.1,-16.1,130,4,,10+,30.05,VFR,clear,
2024-02-25T06:54:00Z,KBTV,KBTV 250654Z 10006KT 10SM CLR M12/M16 A3005 RMK AO2 SLP184 T11171161,44.4683,-73.1499,-11.7,-16.1,100,6,,10+,30.05,VFR,clear,
2024-02-25T07:54:00Z,KBTV,KBTV 250754Z 12003KT 10SM CLR M12/M17 A3006 RMK AO2 SLP187 T11171167,44.4683,-73.1499,-11.7,-16.7,120,3,,10+,30.06,VFR,clear,
2024-02-25T08:54:00Z,KBTV,KBTV 250854Z 13003KT 10SM CLR M12/M16 A3007 RMK AO2 SLP188 T11221161 53005,44.4683,-73.1499,-12.2,-16.1,130,3,,10+,30.07,VFR,clear,
2024-02-25T09:54:00Z,KBTV,KBTV 250954Z 14004KT 10SM CLR M12/M16 A3007 RMK AO2 SLP189 T11221156,44.4683,-73.1499,-12.2,-15.6,140,4,,10+,30.07,VFR,clear,
2024-02-25T10:54:00Z,KBTV,KBTV 251054Z 18004KT 10SM CLR M12/M16 A3008 RMK AO2 SLP192 T11221161,44.4683,-73.1499,-12.2,-16.1,180,4,,10+,30.08,VFR,clear,
2024-02-25T11:54:00Z,KBTV,KBTV 251154Z 18004KT 10SM CLR M12/M16 A3008 RMK AO2 SLP195 T11221161 11111 21122 53006,44.4683,-73.1499,-12.2,-16.1,180,4,,10+,30.08,VFR,clear,
2024-02-25T12:54:00Z,KBTV,KBTV 251254Z 19009KT 10SM FEW150 M09/M16 A3009 RMK AO2 SLP197 T10941161,44.4683,-73.1499,-9.4,-16.1,190,9,,10+,30.09,VFR,a few ,15000
2024-02-25T13:54:00Z,KBTV,KBTV 251354Z 18010KT 10SM CLR M08/M16 A3009 RMK AO2 SLP196 T10781156,44.4683,-73.1499,-7.8,-15.6,180,10,,10+,30.09,VFR,clear,
2024-02-25T14:54:00Z,KBTV,KBTV 251454Z 21015G18KT 10SM FEW150 M06/M16 A3008 RMK AO2 SLP194 T10561156 58000,44.4683,-73.1499,-5.6,-15.6,210,15,18,10+,30.08,VFR,a few ,15000
2024-02-25T15:54:00Z,KBTV,KBTV 251554Z 22012G20KT 10SM SCT200 M03/M14 A3006 RMK AO2 SLP188 T10331144,44.4683,-73.1499,-3.3,-14.4,220,12,20,10+,30.06,VFR,scattered ,20000
2024-02-25T16:54:00Z,KBTV,KBTV 251654Z 20012G19KT 10SM SCT150 M02/M14 A3002 RMK AO2 SLP172 T10221139,44.4683,-73.1499,-2.2,-13.9,200,12,19,10+,30.02,VFR,scattered ,15000
2024-02-25T17:54:00Z,KBTV,KBTV 251754Z 20015G23KT 10SM SCT150 BKN250 M01/M13 A2999 RMK AO2 SLP161 T10061133 11006 21117 58032,44.4683,-73.1499,-0.6,-13.3,200,15,23,10+,29.99,VFR,scattered ,15000
2024-02-25T18:54:00Z,KBTV,KBTV 251854Z 19013G22KT 10SM SCT150 BKN250 01/M13 A2996 RMK AO2 SLP150 T00061133,44.4683,-73.1499,0.6,-13.3,190,13,22,10+,29.96,VFR,scattered ,15000
2024-02-25T19:54:00Z,KBTV,KBTV 251954Z 18010G23KT 10SM SCT150 SCT250 01/M13 A2994 RMK AO2 SLP142 T00111128,44.4683,-73.1499,1.1,-12.8,180,10,23,10+,29.94,VFR,scattered ,15000
2024-02-25T20:54:00Z,KBTV,KBTV 252054Z 20015G23KT 10SM SCT110 SCT250 02/M12 A2991 RMK AO2 SLP134 T00221122 56026,44.4683,-73.1499,2.2,-12.2,200,15,23,10+,29.91,VFR,scattered ,11000
2024-02-25T21:54:00Z,KBTV,KBTV 252154Z 19016G23KT 10SM SCT250 02/M12 A2990 RMK AO2 PK WND 20027/2114 SLP130 T00221122,44.4683,-73.1499,2.2,-12.2,190,16,23,10+,29.9,VFR,scattered ,25000
2024-02-25T22:54:00Z,KBTV,KBTV 252254Z 19013G19KT 10SM SCT100 SCT250 01/M12 A2990 RMK AO2 SLP131 T00111117,44.4683,-73.1499,1.1,-11.7,190,13,19,10+,29.9,VFR,scattered ,10000
2024-02-25T23:54:00Z,KBTV,KBTV 252354Z 19015G22KT 10SM SCT150 SCT250 01/M12 A2990 RMK AO2 SLP131 T00111117 10022 21006 56003,44.4683,-73.1499,1.1,-11.7,190,15,22,10+,29.9,VFR,scattered ,15000
2024-02-26T00:54:00Z,KBTV,KBTV 260054Z 19013G22KT 10SM SCT100 02/M12 A2989 RMK AO2 SLP128 T00171117,44.4683,-73.1499,1.7,-11.7,190,13,22,10+,29.89,VFR,scattered ,10000
2024-02-26T01:54:00Z,KBTV,KBTV 260154Z 19013G22KT 10SM SCT100 01/M11 A2990 RMK AO2 SLP128 T00111111,44.4683,-73.1499,1.1,-11.1,190,13,22,10+,29.9,VFR,scattered ,10000
2024-02-26T02:54:00Z,KBTV,KBTV 260254Z 19012G24KT 10SM CLR 02/M12 A2988 RMK AO2 SLP123 T00171117 58006,44.4683,-73.1499,1.7,-11.7,190,12,24,10+,29.88,VFR,clear,
2024-02-26T03:54:00Z,KBTV,KBTV 260354Z 20016G24KT 10SM OVC085 02/M12 A2987 RMK AO2 PK WND 18026/0322 SLP120 T00221117,44.4683,-73.1499,2.2,-11.7,200,16,24,10+,29.87,VFR,overcast,8500
2024-02-26T04:54:00Z,KBTV,KBTV 260454Z 20009G18KT 10SM OVC032 02/M11 A2991 RMK AO2 SLP133 LAST T00221111 400221122,44.4683,-73.1499,2.2,-11.1,200,9,18,10+,29.91,VFR,overcast,3200
2024-02-26T05:54:00Z,KBTV,KBTV 260554Z 19013G19KT 10SM BKN055 OVC070 02/M11 A2988 RMK AO2 SLP122 T00221111 10022 20011 50000,44.4683,-73.1499,2.2,-11.1,190,13,19,10+,29.88,VFR,broken ,5500
2024-02-26T06:54:00Z,KBTV,KBTV 260654Z 18014G21KT 10SM BKN060 OVC080 02/M09 A2986 RMK AO2 SLP115 T00221094,44.4683,-73.1499,2.2,-9.4,180,14,21,10+,29.86,VFR,broken ,6000
2024-02-26T07:54:00Z,KBTV,KBTV 260754Z 20016G24KT 10SM SCT070 OVC090 02/M10 A2986 RMK AO2 SLP116 T00221100,44.4683,-73.1499,2.2,-10,200,16,24,10+,29.86,VFR,scattered ,7000
2024-02-26T08:54:00Z,KBTV,KBTV 260854Z 19013G24KT 10SM BKN055 BKN070 02/M06 A2986 RMK AO2 PK WND 19027/0812 SLP115 T00171061 56007,44.4683,-73.1499,1.7,-6.1,190,13,24,10+,29.86,VFR,broken ,5500
2024-02-26T09:54:00Z,KBTV,KBTV 260954Z 19016G23KT 10SM OVC060 01/M06 A2985 RMK AO2 PK WND 18028/0924 SLP112 T00111056,44.4683,-73.1499,1.1,-5.6,190,16,23,10+,29.85,VFR,overcast,6000
2024-02-26T10:54:00Z,KBTV,KBTV 261054Z 20014G22KT 10SM OVC055 02/M05 A2986 RMK AO2 SLP115 T00171050,44.4683,-73.1499,1.7,-5,200,14,22,10+,29.86,VFR,overcast,5500
2024-02-26T11:54:00Z,KBTV,KBTV 261154Z 19014G20KT 10SM OVC060 02/M06 A2986 RMK AO2 SLP116 T00221056 10022 20011 53001,44.4683,-73.1499,2.2,-5.6,190,14,20,10+,29.86,VFR,overcast,6000
2024-02-26T12:54:00Z,KBTV,KBTV 261254Z 19013G21KT 10SM BKN150 BKN200 03/M06 A2986 RMK AO2 SLP116 T00281056,44.4683,-73.1499,2.8,-5.6,190,13,21,10+,29.86,VFR,broken ,15000
2024-02-26T13:54:00Z,KBTV,KBTV 261354Z 20011G18KT 10SM BKN050 BKN070 03/M06 A2989 RMK AO2 PK WND 21026/1302 SLP124 ACSL S T00331061,44.4683,-73.1499,3.3,-6.1,200,11,18,10+,29.89,VFR,broken ,5000
2024-02-26T14:54:00Z,KBTV,KBTV 261454Z 20013G24KT 10SM SCT048 BKN055 BKN070 05/M06 A2989 RMK AO2 SLP125 T00501056 53009,44.4683,-73.1499,5,-5.6,200,13,24,10+,29.89,VFR,scattered ,4800
2024-02-26T15:54:00Z,KBTV,KBTV 261554Z 22012KT 10SM BKN046 BKN070 BKN090 07/M05 A2989 RMK AO2 SLP123 T00721050,44.4683,-73.1499,7.2,-5,220,12,,10+,29.89,VFR,broken ,4600
2024-02-26T16:54:00Z,KBTV,KBTV 261654Z 24005KT 10SM BKN050 BKN060 08/M04 A2988 RMK AO2 SLP120 VCSH E T00781044,44.4683,-73.1499,7.8,-4.4,240,5,,10+,29.88,VFR,broken ,5000
2024-02-26T17:54:00Z,KBTV,KBTV 261754Z 34008KT 10SM OVC048 06/M04 A2990 RMK AO2 SLP127 VCSH E T00611039 10078 20017 53003,44.4683,-73.1499,6.1,-3.9,340,8,,10+,29.9,VFR,overcast,4800
2024-02-26T18:54:00Z,KBTV,KBTV 261854Z 32009KT 10SM -RA FEW026 OVC033 05/M01 A2992 RMK AO2 RAB1755 SLP136 P0000 T00501011,44.4683,-73.1499,5,-1.1,320,9,,10+,29.92,VFR,a few ,2600
2024-02-26T19:54:00Z,KBTV,KBTV 261954Z 36003KT 10SM FEW029 SCT044 BKN070 06/M01 A2994 RMK AO2 RAE1855 SLP141 VCSH E P0000 T00561006,44.4683,-73.1499,5.6,-0.6,360,3,,10+,29.94,VFR,a few ,2900
2024-02-26T20:54:00Z,KBTV,KBTV 262054Z 31010KT 10SM FEW040 FEW060 SCT200 08/M04 A2995 RMK AO2 SLP144 60000 T00781044 51017,44.4683,-73.1499,7.8,-4.4,310,10,,10+,29.95,VFR,a few ,4000
2024-02-26T21:54:00Z,KBTV,KBTV 262154Z 34008KT 10SM FEW060 SCT200 07/M06 A2997 RMK AO2 SLP151 T00671056,44.4683,-73.1499,6.7,-5.6,340,8,,10+,29.97,VFR,a few ,6000
2024-02-26T22:54:00Z,KBTV,KBTV 262254Z 01007KT 10SM SCT200 04/M08 A2999 RMK AO2 SLP160 T00441083,44.4683,-73.1499,4.4,-8.3,10,7,,10+,29.99,VFR,scattered ,20000
2024-02-26T23:54:00Z,KBTV,KBTV 262354Z 36006KT 10SM CLR 03/M11 A3002 RMK AO2 SLP169 60000 T00331106 10078 20033 53023,44.4683,-73.1499,3.3,-10.6,360,6,,10+,30.02,VFR,clear,
2024-02-27T00:54:00Z,KBTV,KBTV 270054Z 06004KT 10SM CLR 02/M08 A3002 RMK AO2 SLP170 T00171083,44.4683,-73.1499,1.7,-8.3,60,4,,10+,30.02,VFR,clear,
2024-02-27T01:54:00Z,KBTV,KBTV 270154Z 00000KT 10SM CLR 01/M08 A3002 RMK AO2 SLP171 T00061083,44.4683,-73.1499,0.6,-8.3,0,0,,10+,30.02,VFR,clear,
2024-02-27T02:54:00Z,KBTV,KBTV 270254Z 00000KT 10SM CLR M01/M07 A3002 RMK AO2 SLP170 T10111072 50002,44.4683,-73.1499,-1.1,-7.2,0,0,,10+,30.02,VFR,clear,
2024-02-27T03:54:00Z,KBTV,KBTV 270354Z 00000KT 10SM CLR M01/M06 A3001 RMK AO2 SLP165 T10111061,44.4683,-73.1499,-1.1,-6.1,0,0,,10+,30.01,VFR,clear,
2024-02-27T04:54:00Z,KBTV,KBTV 270454Z 19004KT 10SM CLR M02/M07 A3000 RMK AO2 SLP163 LAST T10221067 400781022,44.4683,-73.1499,-2.2,-6.7,190,4,,10+,30,VFR,clear,
2024-02-27T05:54:00Z,KBTV,KBTV 270554Z AUTO 18004KT 10SM CLR M02/M07 A3000 RMK AO2 SLP162 T10221072 10028 21022 56008,44.4683,-73.1499,-2.2,-7.2,180,4,,10+,30,VFR,clear,
2024-02-27T06:54:00Z,KBTV,KBTV 270654Z AUTO 17004KT 10SM CLR M01/M06 A2999 RMK AO2 SLP158 T10111061,44.4683,-73.1499,-1.1,-6.1,170,4,,10+,29.99,VFR,clear,
2024-02-27T07:54:00Z,KBTV,KBTV 270754Z AUTO 17003KT 10SM CLR M01/M06 A2997 RMK AO2 SLP152 T10061056,44.4683,-73.1499,-0.6,-5.6,170,3,,10+,29.97,VFR,clear,
2024-02-27T08:54:00Z,KBTV,KBTV 270854Z AUTO 15006KT 10SM CLR 01/M04 A2996 RMK AO2 SLP147 T00111044 58014,44.4683,-73.1499,1.1,-4.4,150,6,,10+,29.96,VFR,clear,
2024-02-27T09:54:00Z,KBTV,KBTV 270954Z AUTO 18009KT 10SM CLR 04/M03 A2995 RMK AO2 SLP143 T00391033,44.4683,-73.1499,3.9,-3.3,180,9,,10+,29.95,VFR,clear,
2024-02-27T10:54:00Z,KBTV,KBTV 271054Z 18010KT 10SM FEW250 05/M03 A2994 RMK AO2 SLP141 T00501028,44.4683,-73.1499,5,-2.8,180,10,,10+,29.94,VFR,a few ,25000
2024-02-27T11:54:00Z,KBTV,KBTV 271154Z 19010KT 10SM FEW250 05/M03 A2993 RMK AO2 SLP139 T00501028 10056 21022 56008,44.4683,-73.1499,5,-2.8,190,10,,10+,29.93,VFR,a few ,25000
2024-02-27T12:54:00Z,KBTV,KBTV 271254Z 19012KT 10SM FEW250 07/M02 A2993 RMK AO2 SLP139 T00671022,44.4683,-73.1499,6.7,-2.2,190,12,,10+,29.93,VFR,a few ,25000
2024-02-27T13:54:00Z,KBTV,KBTV 271354Z 19017G20KT 10SM CLR 09/M02 A2993 RMK AO2 SLP137 T00891017,44.4683,-73.1499,8.9,-1.7,190,17,20,10+,29.93,VFR,clear,
2024-02-27T14:54:00Z,KBTV,KBTV 271454Z 20017G22KT 10SM CLR 11/M02 A2992 RMK AO2 SLP134 T01061017 58005,44.4683,-73.1499,10.6,-1.7,200,17,22,10+,29.92,VFR,clear,
2024-02-27T15:54:00Z,KBTV,KBTV 271554Z 19015G22KT 10SM SCT250 13/M01 A2990 RMK AO2 SLP128 T01331011,44.4683,-73.1499,13.3,-1.1,190,15,22,10+,29.9,VFR,scattered ,25000
2024-02-27T16:54:00Z,KBTV,KBTV 271654Z 20017G27KT 10SM FEW180 SCT250 15/M01 A2987 RMK AO2 PK WND 18029/1640 SLP117 T01501006,44.4683,-73.1499,15,-0.6,200,17,27,10+,29.87,VFR,a few ,18000
2024-02-27T17:54:00Z,KBTV,KBTV 271754Z 19014G23KT 10SM FEW090 SCT220 16/00 A2983 RMK AO2 PK WND 20029/1709 SLP105 T01560000 10161 20044 58028,44.4683,-73.1499,15.6,0,190,14,23,10+,29.83,VFR,a few ,9000
2024-02-27T18:54:00Z,KBTV,KBTV 271854Z 20013G22KT 10SM FEW090 SCT220 17/01 A2980 RMK AO2 SLP094 T01720006,44.4683,-73.1499,17.2,0.6,200,13,22,10+,29.8,VFR,a few ,9000
2024-02-27T19:54:00Z,KBTV,KBTV 271954Z 19012KT 10SM FEW110 SCT250 18/01 A2978 RMK AO2 SLP085 T01830011,44.4683,-73.1499,18.3,1.1,190,12,,10+,29.78,VFR,a few ,11000
2024-02-27T20:54:00Z,KBTV,KBTV 272054Z 19012G20KT 10SM FEW120 SCT250 18/01 A2976 RMK AO2 SLP080 T01830011 56023,44.4683,-73.1499,18.3,1.1,190,12,20,10+,29.76,VFR,a few ,12000
2024-02-27T21:54:00Z,KBTV,KBTV 272154Z 14008KT 10SM FEW120 SCT250 15/01 A2976 RMK AO2 SLP079 T01500006,44.4683,-73.1499,15,0.6,140,8,,10+,29.76,VFR,a few ,12000
2024-02-27T22:54:00Z,KBTV,KBTV 272254Z 15006KT 10SM FEW120 BKN180 12/01 A2975 RMK AO2 SLP077 T01220006,44.4683,-73.1499,12.2,0.6,150,6,,10+,29.75,VFR,a few ,12000
2024-02-27T23:54:00Z,KBTV,KBTV 272354Z 15008KT 10SM BKN180 12/01 A2974 RMK AO2 SLP072 T01220011 10183 20122 58008,44.4683,-73.1499,12.2,1.1,150,8,,10+,29.74,VFR,broken ,18000
2024-02-28T00:54:00Z,KBTV,KBTV 280054Z 15008KT 10SM BKN250 12/01 A2973 RMK AO2 SLP070 T01220011,44.4683,-73.1499,12.2,1.1,150,8,,10+,29.73,VFR,broken ,25000
2024-02-28T01:54:00Z,KBTV,KBTV 280154Z 18010KT 10SM SCT055 BKN240 15/02 A2973 RMK AO2 SLP068 T01500017,44.4683,-73.1499,15,1.7,180,10,,10+,29.73,VFR,scattered ,5500
2024-02-28T02:54:00Z,KBTV,KBTV 280254Z 19020G29KT 10SM FEW060 BKN085 BKN200 15/02 A2972 RMK AO2 PK WND 20029/0253 SLP064 T01500022 58007,44.4683,-73.1499,15,2.2,190,20,29,10+,29.72,VFR,a few ,6000
2024-02-28T03:54:00Z,KBTV,KBTV 280354Z 20014KT 10SM BKN055 BKN070 BKN160 OVC200 14/03 A2970 RMK AO2 PK WND 18030/0306 SLP057 T01390033,44.4683,-73.1499,13.9,3.3,200,14,,10+,29.7,VFR,broken ,5500
2024-02-28T04:54:00Z,KBTV,KBTV 280454Z 19014G23KT 10SM BKN034 OVC042 10/07 A2969 RMK AO2 RAB0355E47 SLP053 LAST P0000 T01000067 401831022,44.4683,-73.1499,10,6.7,190,14,23,10+,29.69,VFR,broken ,3400
2024-02-28T05:54:00Z,KBTV,KBTV 280554Z AUTO 19008KT 10SM OVC019 11/07 A2968 RMK AO2 SLP050 60000 T01060072 10156 20100 56013,44.4683,-73.1499,10.6,7.2,190,8,,10+,29.68,MVFR,overcast,1900
2024-02-28T06:54:00Z,KBTV,KBTV 280654Z AUTO 20014G21KT 10SM BKN016 OVC024 11/07 A2967 RMK AO2 SLP047 T01060072,44.4683,-73.1499,10.6,7.2,200,14,21,10+,29.67,MVFR,broken ,1600
2024-02-28T07:54:00Z,KBTV,KBTV 280754Z AUTO 20012KT 10SM OVC017 11/07 A2967 RMK AO2 SLP046 T01060072,44.4683,-73.1499,10.6,7.2,200,12,,10+,29.67,MVFR,overcast,1700
2024-02-28T08:54:00Z,KBTV,KBTV 280854Z AUTO 20012G20KT 10SM BKN019 OVC024 11/08 A2965 RMK AO2 SLP039 T01110078 58011,44.4683,-73.1499,11.1,7.8,200,12,20,10+,29.65,MVFR,broken ,1900
2024-02-28T09:54:00Z,KBTV,KBTV 280954Z AUTO 19012G22KT 10SM OVC020 12/08 A2964 RMK AO2 SLP038 T01220083,44.4683,-73.1499,12.2,8.3,190,12,22,10+,29.64,MVFR,overcast,2000
2024-02-28T10:54:00Z,KBTV,KBTV 281054Z 18009KT 10SM OVC017 12/08 A2962 RMK AO2 SLP031 T01220083,44.4683,-73.1499,12.2,8.3,180,9,,10+,29.62,MVFR,overcast,1700
2024-02-28T11:54:00Z,KBTV,KBTV 281154Z 17008KT 10SM OVC019 13/09 A2959 RMK AO2 SLP019 T01280089 10128 20106 58020,44.4683,-73.1499,12.8,8.9,170,8,,10+,29.59,MVFR,overcast,1900
2024-02-28T12:54:00Z,KBTV,KBTV 281254Z 17009KT 10SM OVC022 13/08 A2956 RMK AO2 SLP009 T01330083,44.4683,-73.1499,13.3,8.3,170,9,,10+,29.56,MVFR,overcast,2200
2024-02-28T13:54:00Z,KBTV,KBTV 281354Z 18007KT 10SM OVC027 12/07 A2952 RMK AO2 SLP998 BINOVC T01220072,44.4683,-73.1499,12.2,7.2,180,7,,10+,29.52,MVFR,overcast,2700
2024-02-28T14:54:00Z,KBTV,KBTV 281454Z 19012G22KT 10SM FEW020 BKN026 OVC090 14/08 A2948 RMK AO2 SLP983 T01440083 58035,44.4683,-73.1499,14.4,8.3,190,12,22,10+,29.48,MVFR,a few ,2000
2024-02-28T15:54:00Z,KBTV,KBTV 281554Z 19016G27KT 10SM BKN022 BKN060 OVC090 14/09 A2944 RMK AO2 PK WND 21032/1515 SLP969 T01440089,44.4683,-73.1499,14.4,8.9,190,16,27,10+,29.44,MVFR,broken ,2200
2024-02-28T16:54:00Z,KBTV,KBTV 281654Z 20014G29KT 10SM BKN022 OVC060 14/09 A2944 RMK AO2 PK WND 20035/1638 SLP968 T01440089,44.4683,-73.1499,14.4,8.9,200,14,29,10+,29.44,MVFR,broken ,2200
2024-02-28T17:54:00Z,KBTV,KBTV 281754Z 19015G27KT 10SM OVC019 14/10 A2940 RMK AO2 PK WND 20030/1720 PRESFR SLP956 T01440100 10150 20117 56027,44.4683,-73.1499,14.4,10,190,15,27,10+,29.4,MVFR,overcast,1900
2024-02-28T18:54:00Z,KBTV,KBTV 281854Z 19015G21KT 10SM OVC023 16/10 A2932 RMK AO2 PK WND 19029/1756 PRESFR SLP930 T01560100,44.4683,-73.1499,15.6,10,190,15,21,10+,29.32,MVFR,overcast,2300
2024-02-28T19:54:00Z,KBTV,KBTV 281954Z 20026G33KT 10SM OVC022 16/11 A2931 RMK AO2 PK WND 20033/1953 SLP926 T01560106,44.4683,-73.1499,15.6,10.6,200,26,33,10+,29.31,MVFR,overcast,2200
2024-02-28T20:54:00Z,KBTV,KBTV 282054Z 19024G35KT 10SM OVC018 15/11 A2927 RMK AO2 PK WND 19037/2039 SLP912 T01500106 56043,44.4683,-73.1499,15,10.6,190,24,35,10+,29.27,MVFR,overcast,1800
2024-02-28T21:54:00Z,KBTV,KBTV 282154Z 21014G33KT 10SM OVC017 15/11 A2927 RMK AO2 PK WND 19033/2101 SLP910 T01500111,44.4683,-73.1499,15,11.1,210,14,33,10+,29.27,MVFR,overcast,1700
2024-02-28T22:54:00Z,KBTV,KBTV 282254Z 20020G29KT 10SM BKN018 OVC024 15/11 A2925 RMK AO2 PK WND 20030/2225 SLP905 T01500111,44.4683,-73.1499,15,11.1,200,20,29,10+,29.25,MVFR,broken ,1800
2024-02-29T23:54:00Z,KBTV,KBTV 292354Z 33015KT 10SM BKN070 M07/M21 A3029 RMK AO2 PK WND 32028/2314 SLP263 T10671206 11050 21067 53032,44.4683,-73.1499,-6.7,-20.6,330,15,,10+,30.29,VFR,broken ,7000
2024-03-01T00:54:00Z,KBTV,KBTV 010054Z 33012KT 10SM CLR M07/M21 A3032 RMK AO2 SLP273 T10721206,44.4683,-73.1499,-7.2,-20.6,330,12,,10+,30.32,VFR,clear,
2024-03-01T01:54:00Z,KBTV,KBTV 010154Z 33013G17KT 10SM CLR M08/M21 A3035 RMK AO2 SLP284 T10781206,44.4683,-73.1499,-7.8,-20.6,330,13,17,10+,30.35,VFR,clear,
2024-03-01T02:54:00Z,KBTV,KBTV 010254Z 33014KT 10SM CLR M08/M21 A3037 RMK AO2 SLP292 T10831211 51029,44.4683,-73.1499,-8.3,-21.1,330,14,,10+,30.37,VFR,clear,
2024-03-01T03:54:00Z,KBTV,KBTV 010354Z 33012KT 10SM CLR M09/M21 A3039 RMK AO2 SLP299 T10891206,44.4683,-73.1499,-8.9,-20.6,330,12,,10+,30.39,VFR,clear,
2024-03-01T04:54:00Z,KBTV,KBTV 010454Z 35010KT 10SM CLR M09/M20 A3041 RMK AO2 SLP303 LAST T10891200 410061089,44.4683,-73.1499,-8.9,-20,350,10,,10+,30.41,VFR,clear,
2024-03-01T05:54:00Z,KBTV,KBTV 010554Z AUTO 36005KT 10SM CLR M09/M20 A3042 RMK AO2 SLP309 T10941200 11067 21094 52017,44.4683,-73.1499,-9.4,-20,360,5,,10+,30.42,VFR,clear,
2024-03-01T06:54:00Z,KBTV,KBTV 010654Z AUTO 36003KT 10SM CLR M10/M19 A3044 RMK AO2 SLP316 T11001194,44.4683,-73.1499,-10,-19.4,360,3,,10+,30.44,VFR,clear,
2024-03-01T07:54:00Z,KBTV,KBTV 010754Z AUTO 00000KT 10SM CLR M11/M19 A3045 RMK AO2 SLP318 T11061194,44.4683,-73.1499,-10.6,-19.4,0,0,,10+,30.45,VFR,clear,
2024-03-01T08:54:00Z,KBTV,KBTV 010854Z AUTO 00000KT 10SM OVC065 M11/M18 A3046 RMK AO2 SLP322 T11061178 51013,44.4683,-73.1499,-10.6,-17.8,0,0,,10+,30.46,VFR,overcast,6500
2024-03-01T09:54:00Z,KBTV,KBTV 010954Z AUTO 00000KT 10SM OVC060 M09/M18 A3048 RMK AO2 SLP328 T10941178,44.4683,-73.1499,-9.4,-17.8,0,0,,10+,30.48,VFR,overcast,6000
2024-03-01T10:54:00Z,KBTV,KBTV 011054Z 19003KT 10SM OVC055 M09/M17 A3048 RMK AO2 SLP330 T10891167,44.4683,-73.1499,-8.9,-16.7,190,3,,10+,30.48,VFR,overcast,5500
2024-03-01T11:54:00Z,KBTV,KBTV 011154Z 18004KT 10SM OVC050 M08/M16 A3049 RMK AO2 SLP333 T10831161 11083 21111 51011,44.4683,-73.1499,-8.3,-16.1,180,4,,10+,30.49,VFR,overcast,5000
2024-03-01T12:54:00Z,KBTV,KBTV 011254Z 19006KT 10SM FEW039 BKN049 M07/M17 A3051 RMK AO2 SLP340 T10721167,44.4683,-73.1499,-7.2,-16.7,190,6,,10+,30.51,VFR,a few ,3900
2024-03-01T13:54:00Z,KBTV,KBTV 011354Z 18010KT 10SM BKN065 BKN075 M06/M16 A3052 RMK AO2 SLP341 T10611161,44.4683,-73.1499,-6.1,-16.1,180,10,,10+,30.52,VFR,broken ,6500
2024-03-01T14:54:00Z,KBTV,KBTV 011454Z 19011KT 160V230 9SM BKN065 BKN080 M04/M14 A3052 RMK AO2 SNB40E51 SLP340 INTMT SHSN P0000 60000 T10441139 50008,44.4683,-73.1499,-4.4,-13.9,190,11,,9,30.52,VFR,broken ,6500
2024-03-01T15:54:00Z,KBTV,KBTV 011554Z 18012KT 10SM FEW040 BKN080 M03/M12 A3050 RMK AO2 SLP336 T10281122,44.4683,-73.1499,-2.8,-12.2,180,12,,10+,30.5,VFR,a few ,4000
2024-03-01T16:54:00Z,KBTV,KBTV 011654Z 18011KT 10SM BKN039 BKN110 M01/M12 A3049 RMK AO2 SLP332 T10111117,44.4683,-73.1499,-1.1,-11.7,180,11,,10+,30.49,VFR,broken ,3900
2024-03-01T17:54:00Z,KBTV,KBTV 011754Z 21008KT 10SM BKN090 01/M11 A3046 RMK AO2 SLP322 60000 T00061106 10006 21083 58018,44.4683,-73.1499,0.6,-10.6,210,8,,10+,30.46,VFR,broken ,9000
2024-03-01T18:54:00Z,KBTV,KBTV 011854Z 19009KT 10SM OVC085 02/M09 A3043 RMK AO2 SLP311 T00221094,44.4683,-73.1499,2.2,-9.4,190,9,,10+,30.43,VFR,overcast,8500
2024-03-01T19:54:00Z,KBTV,KBTV 011954Z 20012KT 10SM BKN085 04/M08 A3041 RMK AO2 SLP303 T00391083,44.4683,-73.1499,3.9,-8.3,200,12,,10+,30.41,VFR,broken ,8500
2024-03-01T20:54:00Z,KBTV,KBTV 012054Z 19011G18KT 10SM FEW085 04/M08 A3040 RMK AO2 SLP300 T00441078 56021,44.4683,-73.1499,4.4,-7.8,190,11,18,10+,30.4,VFR,a few ,8500
2024-03-01T21:54:00Z,KBTV,KBTV 012154Z 20012KT 10SM FEW150 04/M07 A3039 RMK AO2 SLP297 T00441072,44.4683,-73.1499,4.4,-7.2,200,12,,10+,30.39,VFR,a few ,15000
2024-03-01T22:54:00Z,KBTV,KBTV 012254Z 19006KT 10SM FEW150 03/M07 A3040 RMK AO2 SLP300 T00331072,44.4683,-73.1499,3.3,-7.2,190,6,,10+,30.4,VFR,a few ,15000
2024-03-01T23:54:00Z,KBTV,KBTV 012354Z 19010KT 10SM CLR 04/M07 A3039 RMK AO2 SLP297 T00391067 10044 20006 56003,44.4683,-73.1499,3.9,-6.7,190,10,,10+,30.39,VFR,clear,
2024-03-02T00:54:00Z,KBTV,KBTV 020054Z 19011G16KT 10SM CLR 04/M07 A3040 RMK AO2 SLP299 T00391067,44.4683,-73.1499,3.9,-6.7,190,11,16,10+,30.4,VFR,clear,
2024-03-02T01:54:00Z,KBTV,KBTV 020154Z 19009KT 10SM CLR 03/M07 A3039 RMK AO2 SLP294 T00331067,44.4683,-73.1499,3.3,-6.7,190,9,,10+,30.39,VFR,clear,
2024-03-02T02:54:00Z,KBTV,KBTV 020254Z 19011KT 10SM CLR 04/M07 A3037 RMK AO2 SLP289 T00391072 58007,44.4683,-73.1499,3.9,-7.2,190,11,,10+,30.37,VFR,clear,
2024-03-02T03:54:00Z,KBTV,KBTV 020354Z 18010KT 10SM CLR 04/M07 A3037 RMK AO2 SLP287 T00441072,44.4683,-73.1499,4.4,-7.2,180,10,,10+,30.37,VFR,clear,
2024-03-02T04:54:00Z,KBTV,KBTV 020454Z 19015G24KT 10SM CLR 05/M08 A3035 RMK AO2 SLP282 /LAST/ T00501078 400501111,44.4683,-73.1499,5,-7.8,190,15,24,10+,30.35,VFR,clear,
2024-03-02T05:54:00Z,KBTV,KBTV 020554Z AUTO 19014G25KT 10SM CLR 04/M07 A3035 RMK AO2 PK WND 17026/0520 SLP282 T00441072 10050 20033 56008,44.4683,-73.1499,4.4,-7.2,190,14,25,10+,30.35,VFR,clear,
2024-03-02T06:54:00Z,KBTV,KBTV 020654Z AUTO 18013KT 10SM CLR 04/M07 A3034 RMK AO2 SLP278 T00441072,44.4683,-73.1499,4.4,-7.2,180,13,,10+,30.34,VFR,clear,
2024-03-02T07:54:00Z,KBTV,KBTV 020754Z AUTO 18012G19KT 10SM CLR 04/M07 A3034 RMK AO2 SLP276 T00441067,44.4683,-73.1499,4.4,-6.7,180,12,19,10+,30.34,VFR,clear,
2024-03-02T08:54:00Z,KBTV,KBTV 020854Z AUTO 19012G19KT 10SM CLR 04/M07 A3035 RMK AO2 SLP279 T00391067 55001,44.4683,-73.1499,3.9,-6.7,190,12,19,10+,30.35,VFR,clear,
2024-03-02T09:54:00Z,KBTV,KBTV 020954Z AUTO 20014KT 10SM CLR 03/M06 A3035 RMK AO2 SLP281 T00331061,44.4683,-73.1499,3.3,-6.1,200,14,,10+,30.35,VFR,clear,
2024-03-02T10:54:00Z,KBTV,KBTV 021054Z 20015G25KT 10SM BKN150 03/M06 A3035 RMK AO2 SLP281 T00331061,44.4683,-73.1499,3.3,-6.1,200,15,25,10+,30.35,VFR,broken ,15000
2024-03-02T11:54:00Z,KBTV,KBTV 021154Z 19013G24KT 10SM BKN150 04/M05 A3035 RMK AO2 SLP280 T00391050 10044 20033 50001,44.4683,-73.1499,3.9,-5,190,13,24,10+,30.35,VFR,broken ,15000
2024-03-02T12:54:00Z,KBTV,KBTV 021254Z 19014G22KT 10SM SCT048 BKN055 BKN120 04/M05 A3034 RMK AO2 SLP278 T00441050,44.4683,-73.1499,4.4,-5,190,14,22,10+,30.34,VFR,scattered ,4800
2024-03-02T13:54:00Z,KBTV,KBTV 021354Z 19018G25KT 10SM -RA FEW040 BKN060 OVC090 05/M03 A3033 RMK AO2 PK WND 19026/1324 RAB46 SLP273 P0000 T00501033,44.4683,-73.1499,5,-3.3,190,18,25,10+,30.33,VFR,a few ,4000
2024-03-02T14:54:00Z,KBTV,KBTV 021454Z 19013G21KT 10SM -RA FEW034 OVC055 05/M02 A3033 RMK AO2 PK WND 18027/1408 SLP275 P0000 60000 T00501017 55005,44.4683,-73.1499,5,-1.7,190,13,21,10+,30.33,VFR,a few ,3400
2024-03-02T15:54:00Z,KBTV,KBTV 021554Z 18013G20KT 10SM -RA OVC055 06/00 A3031 RMK AO2 SLP267 P0000 T00560000,44.4683,-73.1499,5.6,0,180,13,20,10+,30.31,VFR,overcast,5500
2024-03-02T16:54:00Z,KBTV,KBTV 021654Z 19010KT 10SM OVC050 06/01 A3030 RMK AO2 RAE46 SLP263 P0000 T00610006,44.4683,-73.1499,6.1,0.6,190,10,,10+,30.3,VFR,overcast,5000
2024-03-02T17:54:00Z,KBTV,KBTV 021754Z 18010G17KT 10SM OVC045 07/01 A3028 RMK AO2 SLP257 60000 T00720006 10072 20033 56017,44.4683,-73.1499,7.2,0.6,180,10,17,10+,30.28,VFR,overcast,4500
2024-03-02T18:54:00Z,KBTV,KBTV 021854Z 19010G20KT 10SM -RA SCT050 OVC060 07/01 A3026 RMK AO2 RAB43 SLP250 P0000 T00720011,44.4683,-73.1499,7.2,1.1,190,10,20,10+,30.26,VFR,scattered ,5000
2024-03-02T19:54:00Z,KBTV,KBTV 021954Z 18009KT 10SM -RA BKN041 BKN050 OVC060 07/03 A3026 RMK AO2 SLP249 P0000 T00670028,44.4683,-73.1499,6.7,2.8,180,9,,10+,30.26,VFR,broken ,4100
2024-03-02T20:54:00Z,KBTV,KBTV 022054Z 19008G17KT 8SM -RA OVC060 06/04 A3025 RMK AO2 SLP246 P0006 60006 T00610039 56010,44.4683,-73.1499,6.1,3.9,190,8,17,8,30.25,VFR,overcast,6000
2024-03-02T21:54:00Z,KBTV,KBTV 022154Z 18007KT 6SM -RA BR OVC060 06/04 A3024 RMK AO2 SLP244 P0006 T00610039,44.4683,-73.1499,6.1,3.9,180,7,,6,30.24,VFR,overcast,6000
2024-03-02T22:54:00Z,KBTV,KBTV 022254Z 17006KT 10SM -RA OVC060 06/04 A3023 RMK AO2 SLP241 P0003 T00610044,44.4683,-73.1499,6.1,4.4,170,6,,10+,30.23,VFR,overcast,6000
2024-03-02T23:54:00Z,KBTV,KBTV 022354Z 14006KT 10SM OVC075 06/04 A3022 RMK AO2 RAE53 SLP237 P0001 60016 T00560039 10072 20056 58009,44.4683,-73.1499,5.6,3.9,140,6,,10+,30.22,VFR,overcast,7500
2024-03-03T00:54:00Z,KBTV,KBTV 030054Z 16006KT 10SM FEW025 SCT042 OVC075 06/04 A3021 RMK AO2 SLP233 T00610044,44.4683,-73.1499,6.1,4.4,160,6,,10+,30.21,VFR,a few ,2500
2024-03-03T01:54:00Z,KBTV,KBTV 030154Z 13005KT 10SM SCT075 OVC110 05/04 A3020 RMK AO2 SLP229 T00500039,44.4683,-73.1499,5,3.9,130,5,,10+,30.2,VFR,scattered ,7500
2024-03-03T02:54:00Z,KBTV,KBTV 030254Z 00000KT 10SM FEW080 SCT095 BKN110 06/04 A3019 RMK AO2 SLP227 T00560039 56010,44.4683,-73.1499,5.6,3.9,0,0,,10+,30.19,VFR,a few ,8000
2024-03-03T03:54:00Z,KBTV,KBTV 030354Z 00000KT 10SM SCT011 BKN027 OVC070 05/03 A3019 RMK AO2 RAB02E50 SLP226 P0001 T00500033,44.4683,-73.1499,5,3.3,0,0,,10+,30.19,MVFR,scattered ,1100
2024-03-03T04:54:00Z,KBTV,KBTV 030454Z 08004KT 10SM -RA FEW045 OVC085 04/04 A3018 RMK AO2 RAB0359 SLP221 LAST P0000 T00440039 400720033,44.4683,-73.1499,4.4,3.9,80,4,,10+,30.18,VFR,a few ,4500
2024-03-03T05:54:00Z,KBTV,KBTV 030554Z AUTO 07004KT 10SM OVC080 05/04 A3017 RMK AO2 RAE08 SLP220 P0000 60001 T00500039 10061 20044 58007,44.4683,-73.1499,5,3.9,70,4,,10+,30.17,VFR,overcast,8000
2024-03-03T06:54:00Z,KBTV,KBTV 030654Z AUTO 00000KT 6SM BR FEW003 OVC033 04/04 A3017 RMK AO2 SLP221 T00440039,44.4683,-73.1499,4.4,3.9,0,0,,6,30.17,VFR,a few ,300
2024-03-03T07:54:00Z,KBTV,KBTV 030754Z AUTO 32005KT 1/2SM R15/3500VP6000FT FG VV003 04/03 A3016 RMK AO2 SLP217 T00390028,44.4683,-73.1499,3.9,2.8,320,5,,0.5,30.16,LIFR,,
2024-03-03T08:54:00Z,KBTV,KBTV 030854Z AUTO 00000KT 1/4SM R15/2200V2600FT FG VV002 03/03 A3016 RMK AO2 SLP215 T00330028 58005,44.4683,-73.1499,3.3,2.8,0,0,,0.25,30.16,LIFR,,
2024-03-03T09:54:00Z,KBTV,KBTV 030954Z AUTO 33003KT 1/4SM R15/2200V2400FT FG VV002 03/03 A3017 RMK AO2 SLP220 T00330028,44.4683,-73.1499,3.3,2.8,330,3,,0.25,30.17,LIFR,,
2024-03-03T10:54:00Z,KBTV,KBTV 031054Z 00000KT 1/4SM R15/2600V5000FT FG VV002 03/02 A3019 RMK AO2 SLP225 T00330022,44.4683,-73.1499,3.3,2.2,0,0,,0.25,30.19,LIFR,,
2024-03-03T11:54:00Z,KBTV,KBTV 031154Z 01006KT 1/4SM R15/4000VP6000FT FG VV003 04/03 A3021 RMK AO2 SLP232 70017 T00390028 10050 20028 53017,44.4683,-73.1499,3.9,2.8,10,6,,0.25,30.21,LIFR,,
2024-03-03T12:54:00Z,KBTV,KBTV 031254Z 35004KT 1/8SM R15/4000V5000FT FG VV002 04/03 A3023 RMK AO2 SLP240 T00390033,44.4683,-73.1499,3.9,3.3,350,4,,0.13,30.23,LIFR,,
2024-03-03T13:54:00Z,KBTV,KBTV 031354Z 03004KT 1/2SM R15/P6000FT FG OVC002 04/04 A3023 RMK AO2 SLP241 T00440039,44.4683,-73.1499,4.4,3.9,30,4,,0.5,30.23,LIFR,overcast,200
2024-03-03T14:55:00Z,KBTV,KBTV 031455Z 32005KT 1 1/2SM BR OVC002 06/04 A3024 RMK AO2 T00560044,44.4683,-73.1499,5.6,4.4,320,5,,1.5,30.24,LIFR,overcast,200
2024-03-03T15:54:00Z,KBTV,KBTV 031554Z 33010KT 2SM BR OVC003 06/04 A3024 RMK AO2 SLP243 T00560044,44.4683,-73.1499,5.6,4.4,330,10,,2,30.24,LIFR,overcast,300
2024-03-03T16:54:00Z,KBTV,KBTV 031654Z 34008KT 1SM R15/P6000FT BR OVC003 06/04 A3025 RMK AO2 SLP246 T00560044,44.4683,-73.1499,5.6,4.4,340,8,,1,30.25,LIFR,overcast,300
2024-03-03T17:54:00Z,KBTV,KBTV 031754Z 35008KT 5SM BR OVC004 07/05 A3025 RMK AO2 SLP248 T00670050 10067 20039 52006,44.4683,-73.1499,6.7,5,350,8,,5,30.25,LIFR,overcast,400
2024-03-03T18:54:00Z,KBTV,KBTV 031854Z 01004KT 5SM BR OVC005 07/05 A3026 RMK AO2 SLP248 T00670050,44.4683,-73.1499,6.7,5,10,4,,5,30.26,IFR,overcast,500
2024-03-03T19:59:00Z,KBTV,KBTV 031959Z 36007KT 5SM HZ SCT006 BKN023 OVC035 08/05 A3025 RMK AO2 BINOVC T00780050,44.4683,-73.1499,7.8,5,360,7,,5,30.25,MVFR,scattered ,600
2024-03-03T20:54:00Z,KBTV,KBTV 032054Z 35006KT 7SM SCT030 SCT100 09/05 A3023 RMK AO2 SLP241 T00890050 58006,44.4683,-73.1499,8.9,5,350,6,,7,30.23,VFR,scattered ,3000
2024-03-03T21:54:00Z,KBTV,KBTV 032154Z 35007KT 8SM BKN017 BKN080 09/05 A3024 RMK AO2 SLP243 T00890050,44.4683,-73.1499,8.9,5,350,7,,8,30.24,MVFR,broken ,1700
2024-03-03T22:54:00Z,KBTV,KBTV 032254Z 01006KT 7SM BKN016 08/04 A3026 RMK AO2 SLP251 T00780044,44.4683,-73.1499,7.8,4.4,10,6,,7,30.26,MVFR,broken ,1600
2024-03-03T23:54:00Z,KBTV,KBTV 032354Z 36005KT 10SM SCT008 OVC011 07/05 A3028 RMK AO2 SLP258 T00670050 10094 20067 53017,44.4683,-73.1499,6.7,5,360,5,,10+,30.28,MVFR,scattered ,800
2024-03-04T00:54:00Z,KBTV,KBTV 040054Z 01004KT 8SM BKN005 OVC010 06/04 A3030 RMK AO2 SLP265 T00610044,44.4683,-73.1499,6.1,4.4,10,4,,8,30.3,IFR,broken ,500
2024-03-04T01:54:00Z,KBTV,KBTV 040154Z 00000KT 7SM SCT005 OVC012 06/05 A3030 RMK AO2 SLP265 T00610050,44.4683,-73.1499,6.1,5,0,0,,7,30.3,MVFR,scattered ,500
2024-03-04T02:54:00Z,KBTV,KBTV 040254Z 00000KT 8SM BKN005 OVC010 06/04 A3031 RMK AO2 SLP267 T00610044 51009,44.4683,-73.1499,6.1,4.4,0,0,,8,30.31,IFR,broken ,500
2024-03-04T03:54:00Z,KBTV,KBTV 040354Z 32006KT 8SM FEW005 OVC012 06/04 A3031 RMK AO2 SLP265 T00560044,44.4683,-73.1499,5.6,4.4,320,6,,8,30.31,MVFR,a few ,500
2024-03-04T04:54:00Z,KBTV,KBTV 040454Z 32003KT 4SM BR OVC004 06/04 A3032 RMK AO2 SLP270 LAST T00560044 400940028,44.4683,-73.1499,5.6,4.4,320,3,,4,30.32,LIFR,overcast,400
2024-03-04T05:54:00Z,KBTV,KBTV 040554Z AUTO 00000KT 2 1/2SM BR OVC004 06/04 A3031 RMK AO2 SLP268 T00560039 10067 20056 50003,44.4683,-73.1499,5.6,3.9,0,0,,2.5,30.31,LIFR,overcast,400
2024-03-04T06:54:00Z,KBTV,KBTV 040654Z AUTO 07003KT 1 1/4SM R15/5500VP6000FT BR FEW003 OVC014 05/04 A3032 RMK AO2 SLP270 T00500039,44.4683,-73.1499,5,3.9,70,3,,1.25,30.32,IFR,a few ,300
2024-03-04T07:54:00Z,KBTV,KBTV 040754Z AUTO 00000KT 2SM BR OVC002 06/04 A3032 RMK AO2 SLP272 T00560044,44.4683,-73.1499,5.6,4.4,0,0,,2,30.32,LIFR,overcast,200
2024-03-04T08:54:00Z,KBTV,KBTV 040854Z AUTO 00000KT 1/2SM R15/4500V6000FT FG VV002 05/04 A3033 RMK AO2 SLP274 T00500044 53004,44.4683,-73.1499,5,4.4,0,0,,0.5,30.33,LIFR,,
2024-03-04T09:54:00Z,KBTV,KBTV 040954Z AUTO 00000KT 1/4SM R15/4000V5000FT FG VV002 05/04 A3034 RMK AO2 SLP277 T00500039,44.4683,-73.1499,5,3.9,0,0,,0.25,30.34,LIFR,,
2024-03-04T10:54:00Z,KBTV,KBTV 041054Z 00000KT 3SM BR OVC011 05/04 A3036 RMK AO2 SLP283 T00500044,44.4683,-73.1499,5,4.4,0,0,,3,30.36,MVFR,overcast,1100
2024-03-04T11:54:00Z,KBTV,KBTV 041154Z 00000KT 2SM R15/5000VP6000FT BR OVC012 05/04 A3037 RMK AO2 SFC VIS 4 SLP286 T00500044 10056 20044 51008,44.4683,-73.1499,5,4.4,0,0,,2,30.37,IFR,overcast,1200
2024-03-04T12:54:00Z,KBTV,KBTV 041254Z 23003KT 3SM BR FEW012 BKN023 06/04 A3038 RMK AO2 SLP289 T00560044,44.4683,-73.1499,5.6,4.4,230,3,,3,30.38,MVFR,a few ,1200
2024-03-04T13:54:00Z,KBTV,KBTV 041354Z 20006KT 10SM FEW028 SCT030 BKN090 07/05 A3037 RMK AO2 SLP287 T00720050,44.4683,-73.1499,7.2,5,200,6,,10+,30.37,VFR,a few ,2800
2024-03-04T14:54:00Z,KBTV,KBTV 041454Z 19007KT 10SM SCT028 BKN049 BKN090 09/05 A3036 RMK AO2 SLP283 T00890050 58005 $,44.4683,-73.1499,8.9,5,190,7,,10+,30.36,VFR,scattered ,2800
2024-03-04T15:54:00Z,KBTV,KBTV 041554Z 18008KT 10SM BKN050 BKN080 11/06 A3035 RMK AO2 SLP279 T01060056 $,44.4683,-73.1499,10.6,5.6,180,8,,10+,30.35,VFR,broken ,5000
2024-03-04T16:54:00Z,KBTV,KBTV 041654Z 20009KT 10SM BKN050 BKN080 12/06 A3033 RMK AO2 SLP273 T01170061 $,44.4683,-73.1499,11.7,6.1,200,9,,10+,30.33,VFR,broken ,5000
2024-03-04T17:54:00Z,KBTV,KBTV 041754Z 17010KT 10SM FEW040 BKN050 BKN080 14/07 A3031 RMK AO2 SLP267 T01390067 10139 20050 58016,44.4683,-73.1499,13.9,6.7,170,10,,10+,30.31,VFR,a few ,4000
2024-03-04T18:54:00Z,KBTV,KBTV 041854Z 17010G17KT 10SM FEW040 BKN050 BKN080 14/07 A3030 RMK AO2 SLP263 T01440067,44.4683,-73.1499,14.4,6.7,170,10,17,10+,30.3,VFR,a few ,4000
2024-03-04T19:54:00Z,KBTV,KBTV 041954Z 20011KT 10SM FEW040 BKN050 BKN080 15/07 A3029 RMK AO2 SLP260 T01500072,44.4683,-73.1499,15,7.2,200,11,,10+,30.29,VFR,a few ,4000
2024-03-04T20:54:00Z,KBTV,KBTV 042054Z 18008G19KT 10SM FEW034 BKN050 BKN200 15/07 A3029 RMK AO2 SLP258 T01500067 56008,44.4683,-73.1499,15,6.7,180,8,19,10+,30.29,VFR,a few ,3400
2024-03-04T21:54:00Z,KBTV,KBTV 042154Z 18012KT 10SM FEW035 BKN050 BKN200 14/06 A3028 RMK AO2 SLP256 T01390056,44.4683,-73.1499,13.9,5.6,180,12,,10+,30.28,VFR,a few ,3500
2024-03-04T22:54:00Z,KBTV,KBTV 042254Z 16006KT 10SM FEW030 BKN048 BKN250 12/06 A3028 RMK AO2 SLP257 T01220056,44.4683,-73.1499,12.2,5.6,160,6,,10+,30.28,VFR,a few ,3000
2024-03-04T23:54:00Z,KBTV,KBTV 042354Z 15005KT 10SM BKN049 12/05 A3029 RMK AO2 SLP258 T01170050 10156 20117 55001,44.4683,-73.1499,11.7,5,150,5,,10+,30.29,VFR,broken ,4900
2024-03-05T00:54:00Z,KBTV,KBTV 050054Z 13004KT 10SM BKN049 11/05 A3029 RMK AO2 SLP257 T01060050,44.4683,-73.1499,10.6,5,130,4,,10+,30.29,VFR,broken ,4900
2024-03-05T01:54:00Z,KBTV,KBTV 050154Z 16006KT 10SM CLR 10/04 A3028 RMK AO2 SLP256 T01000044,44.4683,-73.1499,10,4.4,160,6,,10+,30.28,VFR,clear,
2024-03-05T02:54:00Z,KBTV,KBTV 050254Z 14005KT 10SM CLR 09/04 A3028 RMK AO2 SLP254 T00890044 58003,44.4683,-73.1499,8.9,4.4,140,5,,10+,30.28,VFR,clear,
2024-03-05T03:54:00Z,KBTV,KBTV 050354Z 13004KT 10SM CLR 07/04 A3027 RMK AO2 SLP252 T00720039,44.4683,-73.1499,7.2,3.9,130,4,,10+,30.27,VFR,clear,
2024-03-05T04:54:00Z,KBTV,KBTV 050454Z 13007KT 10SM CLR 07/04 A3027 RMK AO2 SLP251 LAST T00720039 401560044,44.4683,-73.1499,7.2,3.9,130,7,,10+,30.27,VFR,clear,
2024-03-05T05:54:00Z,KBTV,KBTV 050554Z AUTO 13005KT 10SM CLR 07/03 A3026 RMK AO2 SLP249 T00670033 10117 20067 56005,44.4683,-73.1499,6.7,3.3,130,5,,10+,30.26,VFR,clear,
2024-03-05T06:54:00Z,KBTV,KBTV 050654Z AUTO 13006KT 10SM CLR 07/03 A3024 RMK AO2 SLP242 T00670033,44.4683,-73.1499,6.7,3.3,130,6,,10+,30.24,VFR,clear,
2024-03-05T07:54:00Z,KBTV,KBTV 050754Z AUTO 13007KT 10SM CLR 07/03 A3022 RMK AO2 SLP234 T00670033,44.4683,-73.1499,6.7,3.3,130,7,,10+,30.22,VFR,clear,
2024-03-05T08:54:00Z,KBTV,KBTV 050854Z AUTO 14008KT 10SM CLR 06/03 A3020 RMK AO2 SLP229 T00610028 56020,44.4683,-73.1499,6.1,2.8,140,8,,10+,30.2,VFR,clear,
2024-03-05T09:54:00Z,KBTV,KBTV 050954Z AUTO 13010KT 10SM OVC043 07/03 A3021 RMK AO2 SLP231 T00670033,44.4683,-73.1499,6.7,3.3,130,10,,10+,30.21,VFR,overcast,4300
2024-03-05T10:54:00Z,KBTV,KBTV 051054Z 13008KT 10SM BKN028 06/03 A3021 RMK AO2 SLP231 T00610028,44.4683,-73.1499,6.1,2.8,130,8,,10+,30.21,MVFR,broken ,2800
2024-03-05T11:54:00Z,KBTV,KBTV 051154Z 15009KT 10SM SCT027 BKN044 07/03 A3021 RMK AO2 SLP231 T00670033 10072 20056 50002,44.4683,-73.1499,6.7,3.3,150,9,,10+,30.21,VFR,scattered ,2700
2024-03-05T12:54:00Z,KBTV,KBTV 051254Z 19011G23KT 10SM BKN021 BKN042 09/04 A3021 RMK AO2 SLP230 T00940039,44.4683,-73.1499,9.4,3.9,190,11,23,10+,30.21,MVFR,broken ,2100
2024-03-05T13:54:00Z,KBTV,KBTV 051354Z 19013G29KT 10SM SCT019 SCT070 BKN200 10/04 A3020 RMK AO2 PK WND 19029/1347 SLP228 T01000039,44.4683,-73.1499,10,3.9,190,13,29,10+,30.2,VFR,scattered ,1900
2024-03-05T14:54:00Z,KBTV,KBTV 051454Z 21010KT 10SM SCT050 SCT080 BKN200 11/03 A3018 RMK AO2 PK WND 21026/1402 SLP222 T01060033 58009,44.4683,-73.1499,10.6,3.3,210,10,,10+,30.18,VFR,scattered ,5000
2024-03-05T15:54:00Z,KBTV,KBTV 051554Z 19012G21KT 10SM SCT050 BKN080 BKN200 12/03 A3014 RMK AO2 PK WND 19026/1518 SLP207 T01170033,44.4683,-73.1499,11.7,3.3,190,12,21,10+,30.14,VFR,scattered ,5000
2024-03-05T16:54:00Z,KBTV,KBTV 051654Z 18014G22KT 10SM BKN048 BKN080 12/03 A3011 RMK AO2 PK WND 19027/1632 SLP199 T01220033,44.4683,-73.1499,12.2,3.3,180,14,22,10+,30.11,VFR,broken ,4800
2024-03-05T17:54:00Z,KBTV,KBTV 051754Z 19013KT 10SM -RA OVC035 11/03 A3009 RMK AO2 RAB49 SLP190 INTMT SHRA P0000 60000 T01110033 10122 20072 56031,44.4683,-73.1499,11.1,3.3,190,13,,10+,30.09,VFR,overcast,3500
2024-03-05T18:54:00Z,KBTV,KBTV 051854Z 19012KT 10SM -RA FEW047 SCT075 BKN110 10/05 A3006 RMK AO2 SLP180 INTMT SHRA P0000 T01000050,44.4683,-73.1499,10,5,190,12,,10+,30.06,VFR,a few ,4700
2024-03-05T19:54:00Z,KBTV,KBTV 051954Z 19010KT 10SM BKN013 BKN025 OVC080 09/06 A3005 RMK AO2 RAE32 SLP176 P0000 T00940056,44.4683,-73.1499,9.4,5.6,190,10,,10+,30.05,MVFR,broken ,1300
2024-03-05T20:54:00Z,KBTV,KBTV 052054Z 17010KT 10SM SCT011 BKN065 OVC090 09/06 A3003 RMK AO2 SLP169 60000 T00890056 56021,44.4683,-73.1499,8.9,5.6,170,10,,10+,30.03,VFR,scattered ,1100
2024-03-05T21:54:00Z,KBTV,KBTV 052154Z 15009KT 10SM -RA FEW007 BKN034 OVC042 08/07 A3002 RMK AO2 RAB2057 SLP168 P0001 T00830067,44.4683,-73.1499,8.3,6.7,150,9,,10+,30.02,VFR,a few ,700
2024-03-05T22:54:00Z,KBTV,KBTV 052254Z 13005KT 6SM -RA BR SCT006 SCT070 OVC090 08/06 A3000 RMK AO2 SLP161 P0003 T00780061,44.4683,-73.1499,7.8,6.1,130,5,,6,30,VFR,scattered ,600
2024-03-05T23:54:00Z,KBTV,KBTV 052354Z 14004KT 10SM -RA SCT006 OVC085 07/06 A2997 RMK AO2 SLP153 P0001 60005 T00720056 10111 20072 58017,44.4683,-73.1499,7.2,5.6,140,4,,10+,29.97,VFR,scattered ,600
2024-03-06T00:54:00Z,KBTV,KBTV 060054Z 18005KT 10SM -RA FEW008 SCT037 OVC090 08/07 A2997 RMK AO2 SLP150 P0001 T00780067,44.4683,-73.1499,7.8,6.7,180,5,,10+,29.97,VFR,a few ,800
2024-03-06T01:54:00Z,KBTV,KBTV 060154Z 16008KT 10SM BKN009 OVC085 08/06 A2997 RMK AO2 RAE16 SLP150 P0001 T00780061,44.4683,-73.1499,7.8,6.1,160,8,,10+,29.97,IFR,broken ,900
2024-03-06T02:54:00Z,KBTV,KBTV 060254Z 16009G19KT 10SM OVC085 08/06 A2996 RMK AO2 SLP147 60002 T00830061 58005,44.4683,-73.1499,8.3,6.1,160,9,19,10+,29.96,VFR,overcast,8500
2024-03-06T03:54:00Z,KBTV,KBTV 060354Z VRB03KT 10SM BKN250 07/05 A2995 RMK AO2 SLP142 T00670050,44.4683,-73.1499,6.7,5,VRB,3,,10+,29.95,VFR,broken ,25000
2024-03-06T04:54:00Z,KBTV,KBTV 060454Z 14005KT 10SM SCT065 BKN250 07/05 A2996 RMK AO2 SLP146 LAST T00670050 401220056,44.4683,-73.1499,6.7,5,140,5,,10+,29.96,VFR,scattered ,6500
2024-03-06T05:54:00Z,KBTV,KBTV 060554Z AUTO 18005KT 10SM BKN019 OVC039 08/06 A2996 RMK AO2 SLP148 60002 T00780056 10083 20056 53001,44.4683,-73.1499,7.8,5.6,180,5,,10+,29.96,MVFR,broken ,1900
2024-03-06T06:54:00Z,KBTV,KBTV 060654Z AUTO 20008KT 10SM OVC032 08/06 A2996 RMK AO2 RAB0555E12 SLP148 P0000 T00830061,44.4683,-73.1499,8.3,6.1,200,8,,10+,29.96,VFR,overcast,3200
2024-03-06T07:54:00Z,KBTV,KBTV 060754Z AUTO 19010KT 10SM FEW010 OVC029 08/06 A2995 RMK AO2 SLP144 T00830061,44.4683,-73.1499,8.3,6.1,190,10,,10+,29.95,MVFR,a few ,1000
2024-03-06T08:54:00Z,KBTV,KBTV 060854Z AUTO 21006KT 10SM BKN010 BKN080 OVC100 08/06 A2996 RMK AO2 SLP148 60000 T00830061 55001,44.4683,-73.1499,8.3,6.1,210,6,,10+,29.96,MVFR,broken ,1000
2024-03-06T09:54:00Z,KBTV,KBTV 060954Z AUTO 20008KT 10SM OVC010 08/06 A2997 RMK AO2 SLP152 T00780061,44.4683,-73.1499,7.8,6.1,200,8,,10+,29.97,MVFR,overcast,1000
2024-03-06T10:54:00Z,KBTV,KBTV 061054Z 20008KT 10SM FEW009 OVC026 08/06 A3000 RMK AO2 SLP160 T00780056,44.4683,-73.1499,7.8,5.6,200,8,,10+,30,MVFR,a few ,900
2024-03-06T11:54:00Z,KBTV,KBTV 061154Z 19008KT 7SM BKN009 OVC025 08/06 A3001 RMK AO2 SLP164 60000 70007 T00780056 10083 20078 50013,44.4683,-73.1499,7.8,5.6,190,8,,7,30.01,IFR,broken ,900
2024-03-06T12:54:00Z,KBTV,KBTV 061254Z 19008KT 10SM OVC009 08/06 A3003 RMK AO2 SLP169 T00780056,44.4683,-73.1499,7.8,5.6,190,8,,10+,30.03,IFR,overcast,900
2024-03-06T13:54:00Z,KBTV,KBTV 061354Z 21007KT 10SM OVC009 08/06 A3003 RMK AO2 SLP172 T00830061,44.4683,-73.1499,8.3,6.1,210,7,,10+,30.03,IFR,overcast,900
2024-03-06T14:54:00Z,KBTV,KBTV 061454Z 20004KT 10SM OVC009 08/07 A3004 RMK AO2 SLP175 T00830067 51010,44.4683,-73.1499,8.3,6.7,200,4,,10+,30.04,IFR,overcast,900
2024-03-06T15:54:00Z,KBTV,KBTV 061554Z 22004KT 4SM -RA BR BKN010 OVC018 09/07 A3004 RMK AO2 RAB28 SLP175 P0000 T00890067,44.4683,-73.1499,8.9,6.7,220,4,,4,30.04,MVFR,broken ,1000
2024-03-06T16:54:00Z,KBTV,KBTV 061654Z 06004KT 7SM -RA OVC006 08/06 A3003 RMK AO2 CIG 004V009 SLP173 P0006 T00780061,44.4683,-73.1499,7.8,6.1,60,4,,7,30.03,IFR,overcast,600
2024-03-06T17:54:00Z,KBTV,KBTV 061754Z 33004KT 6SM -RA BR OVC006 08/07 A3002 RMK AO2 CIG 003V009 SLP167 P0004 60010 T00830067 10089 20078 58007,44.4683,-73.1499,8.3,6.7,330,4,,6,30.02,IFR,overcast,600
2024-03-06T18:54:00Z,KBTV,KBTV 061854Z 34007KT 3SM -RA BR OVC007 08/07 A3001 RMK AO2 CIG 003V009 SLP166 P0009 T00830067,44.4683,-73.1499,8.3,6.7,340,7,,3,30.01,IFR,overcast,700
2024-03-06T19:54:00Z,KBTV,KBTV 061954Z 33008KT 3SM -RA BR SCT004 OVC012 07/06 A3002 RMK AO2 SLP166 P0003 T00720061,44.4683,-73.1499,7.2,6.1,330,8,,3,30.02,MVFR,scattered ,400
2024-03-06T20:54:00Z,KBTV,KBTV 062054Z 33008KT 4SM -RA BR OVC004 06/05 A3003 RMK AO2 SLP170 P0005 60017 T00610050 53002,44.4683,-73.1499,6.1,5,330,8,,4,30.03,LIFR,overcast,400
2024-03-06T21:54:00Z,KBTV,KBTV 062154Z 34008KT 4SM RA BR BKN004 BKN008 OVC016 06/05 A3002 RMK AO2 SLP169 P0008 T00610050,44.4683,-73.1499,6.1,5,340,8,,4,30.02,LIFR,broken ,400
2024-03-06T22:54:00Z,KBTV,KBTV 062254Z 33009KT 4SM -RA BR OVC004 06/04 A3003 RMK AO2 SLP173 P0007 T00560044,44.4683,-73.1499,5.6,4.4,330,9,,4,30.03,LIFR,overcast,400
2024-03-06T23:54:00Z,KBTV,KBTV 062354Z 34010KT 6SM RA BR OVC004 05/04 A3004 RMK AO2 SLP176 P0006 60038 T00500039 10083 20050 53006,44.4683,-73.1499,5,3.9,340,10,,6,30.04,LIFR,overcast,400
2024-03-07T00:54:00Z,KBTV,KBTV 070054Z 34009KT 6SM RA BR OVC004 04/03 A3004 RMK AO2 SLP176 P0006 T00440033,44.4683,-73.1499,4.4,3.3,340,9,,6,30.04,LIFR,overcast,400
2024-03-07T01:54:00Z,KBTV,KBTV 070154Z 34009KT 6SM -RA BR OVC004 04/03 A3004 RMK AO2 SLP175 P0008 T00390028,44.4683,-73.1499,3.9,2.8,340,9,,6,30.04,LIFR,overcast,400
2024-03-07T02:54:00Z,KBTV,KBTV 070254Z 33010KT 8SM -RA OVC003 04/03 A3004 RMK AO2 SLP175 P0003 60017 T00390028 57001,44.4683,-73.1499,3.9,2.8,330,10,,8,30.04,LIFR,overcast,300
2024-03-07T03:54:00Z,KBTV,KBTV 070354Z 34009KT 6SM RA BR OVC004 04/03 A3003 RMK AO2 SLP171 P0006 T00390028,44.4683,-73.1499,3.9,2.8,340,9,,6,30.03,LIFR,overcast,400
2024-03-07T04:54:00Z,KBTV,KBTV 070454Z 35009KT 6SM RA BR OVC004 03/03 A3002 RMK AO2 SLP167 LAST P0006 T00330028 400890033,44.4683,-73.1499,3.3,2.8,350,9,,6,30.02,LIFR,overcast,400
2024-03-07T05:54:00Z,KBTV,KBTV 070554Z AUTO 34011KT 6SM RA BR OVC004 03/02 A3000 RMK AO2 SLP160 P0008 60037 T00330022 10050 20033 58014,44.4683,-73.1499,3.3,2.2,340,11,,6,30,LIFR,overcast,400
2024-03-07T06:54:00Z,KBTV,KBTV 070654Z AUTO 34009KT 7SM -RA OVC003 03/02 A2998 RMK AO2 SLP155 P0004 T00330022,44.4683,-73.1499,3.3,2.2,340,9,,7,29.98,LIFR,overcast,300
2024-03-07T07:54:00Z,KBTV,KBTV 070754Z AUTO 34010KT 8SM -RA OVC003 03/02 A2996 RMK AO2 SLP149 P0004 T00330022,44.4683,-73.1499,3.3,2.2,340,10,,8,29.96,LIFR,overcast,300
2024-03-07T08:54:00Z,KBTV,KBTV 070854Z AUTO 34010KT 10SM -RA OVC003 03/02 A2996 RMK AO2 SLP148 P0002 60010 T00330022 56012,44.4683,-73.1499,3.3,2.2,340,10,,10+,29.96,LIFR,overcast,300
2024-03-07T09:54:00Z,KBTV,KBTV 070954Z AUTO 33010KT 10SM OVC004 03/02 A2999 RMK AO2 RAE47 SLP157 P0000 T00330022,44.4683,-73.1499,3.3,2.2,330,10,,10+,29.99,LIFR,overcast,400
2024-03-07T10:54:00Z,KBTV,KBTV 071054Z 34011KT 10SM OVC006 03/02 A3001 RMK AO2 SLP165 T00330017,44.4683,-73.1499,3.3,1.7,340,11,,10+,30.01,IFR,overcast,600
2024-03-07T11:54:00Z,KBTV,KBTV 071154Z 35014KT 10SM OVC006 03/02 A3001 RMK AO2 SLP166 MTNS OBSCD E-S BINOVC 60010 70095 T00330017 10033 20033 51017,44.4683,-73.1499,3.3,1.7,350,14,,10+,30.01,IFR,overcast,600
2024-03-07T12:54:00Z,KBTV,KBTV 071254Z 35013KT 10SM OVC009 03/01 A3003 RMK AO2 SLP172 MTNS OBSCD E BINOVC T00280006,44.4683,-73.1499,2.8,0.6,350,13,,10+,30.03,IFR,overcast,900
2024-03-07T13:54:00Z,KBTV,KBTV 071354Z 35012G21KT 10SM OVC013 03/M01 A3005 RMK AO2 SLP181 MTNS OBSCD E BINOVC T00281006,44.4683,-73.1499,2.8,-0.6,350,12,21,10+,30.05,MVFR,overcast,1300
2024-03-07T14:54:00Z,KBTV,KBTV 071454Z 34014G21KT 10SM OVC016 03/M01 A3007 RMK AO2 SLP185 MTNS OBSCD E BINOVC T00331011 51019,44.4683,-73.1499,3.3,-1.1,340,14,21,10+,30.07,MVFR,overcast,1600
2024-03-07T15:54:00Z,KBTV,KBTV 071554Z 35016G24KT 10SM BKN018 03/M02 A3011 RMK AO2 SLP199 MTNS OBSCD E T00331017,44.4683,-73.1499,3.3,-1.7,350,16,24,10+,30.11,MVFR,broken ,1800
2024-03-07T16:54:00Z,KBTV,KBTV 071654Z 34015G24KT 10SM BKN019 04/M02 A3011 RMK AO2 SLP200 MTNS OBSCD E T00441017,44.4683,-73.1499,4.4,-1.7,340,15,24,10+,30.11,MVFR,broken ,1900
2024-03-07T17:54:00Z,KBTV,KBTV 071754Z 35013KT 10SM BKN024 06/M01 A3012 RMK AO2 SLP202 MTNS OBSCD E T00611006 10061 20028 51017,44.4683,-73.1499,6.1,-0.6,350,13,,10+,30.12,MVFR,broken ,2400
2024-03-07T18:54:00Z,KBTV,KBTV 071854Z 01013G20KT 10SM OVC025 07/01 A3012 RMK AO2 SLP203 MTNS OBSCD E-S T00720006,44.4683,-73.1499,7.2,0.6,10,13,20,10+,30.12,MVFR,overcast,2500
2024-03-07T19:54:00Z,KBTV,KBTV 071954Z 36010KT 10SM OVC030 08/01 A3014 RMK AO2 SLP209 T00780006,44.4683,-73.1499,7.8,0.6,360,10,,10+,30.14,MVFR,overcast,3000
2024-03-07T20:54:00Z,KBTV,KBTV 072054Z 34012KT 10SM BKN030 08/00 A3015 RMK AO2 SLP213 T00830000 51009,44.4683,-73.1499,8.3,0,340,12,,10+,30.15,MVFR,broken ,3000
2024-03-07T21:54:00Z,KBTV,KBTV 072154Z 35009G18KT 10SM BKN037 08/00 A3016 RMK AO2 SLP215 T00830000,44.4683,-73.1499,8.3,0,350,9,18,10+,30.16,VFR,broken ,3700
2024-03-07T22:54:00Z,KBTV,KBTV 072254Z 34009KT 10SM BKN037 06/M01 A3018 RMK AO2 SLP224 T00611006,44.4683,-73.1499,6.1,-0.6,340,9,,10+,30.18,VFR,broken ,3700
2024-03-07T23:54:00Z,KBTV,KBTV 072354Z 36009KT 10SM FEW038 05/M01 A3020 RMK AO2 SLP230 T00501011 10083 20050 53017,44.4683,-73.1499,5,-1.1,360,9,,10+,30.2,VFR,a few ,3800
2024-03-08T00:54:00Z,KBTV,KBTV 080054Z 35008KT 10SM CLR 04/M01 A3021 RMK AO2 SLP234 T00441011,44.4683,-73.1499,4.4,-1.1,350,8,,10+,30.21,VFR,clear,
2024-03-08T01:54:00Z,KBTV,KBTV 080154Z 34009KT 10SM CLR 03/M02 A3024 RMK AO2 SLP244 T00331017,44.4683,-73.1499,3.3,-1.7,340,9,,10+,30.24,VFR,clear,
2024-03-08T02:54:00Z,KBTV,KBTV 080254Z 36005KT 10SM CLR 02/M02 A3025 RMK AO2 SLP248 T00221017 52017,44.4683,-73.1499,2.2,-1.7,360,5,,10+,30.25,VFR,clear,
2024-03-08T03:54:00Z,KBTV,KBTV 080354Z 04003KT 10SM CLR 02/M02 A3026 RMK AO2 SLP250 T00171022,44.4683,-73.1499,1.7,-2.2,40,3,,10+,30.26,VFR,clear,
2024-03-08T04:54:00Z,KBTV,KBTV 080454Z 00000KT 10SM CLR M01/M03 A3026 RMK AO2 SLP252 /LAST/ T10111028 400831011,44.4683,-73.1499,-1.1,-2.8,0,0,,10+,30.26,VFR,clear,
2024-03-08T05:54:00Z,KBTV,KBTV 080554Z AUTO 00000KT 10SM CLR M01/M03 A3028 RMK AO2 SLP257 T10061033 10050 21011 53009,44.4683,-73.1499,-0.6,-3.3,0,0,,10+,30.28,VFR,clear,
2024-03-08T06:54:00Z,KBTV,KBTV 080654Z AUTO 00000KT 10SM CLR M02/M04 A3028 RMK AO2 SLP258 T10171039,44.4683,-73.1499,-1.7,-3.9,0,0,,10+,30.28,VFR,clear,
2024-03-08T07:54:00Z,KBTV,KBTV 080754Z AUTO 00000KT 10SM CLR M02/M04 A3027 RMK AO2 SLP255 I1000 T10221044,44.4683,-73.1499,-2.2,-4.4,0,0,,10+,30.27,VFR,clear,
2024-03-08T08:54:00Z,KBTV,KBTV 080854Z AUTO 00000KT 10SM CLR M03/M05 A3028 RMK AO2 SLP259 I1000 I3000 T10281050 53002,44.4683,-73.1499,-2.8,-5,0,0,,10+,30.28,VFR,clear,
2024-03-08T09:54:00Z,KBTV,KBTV 080954Z AUTO 00000KT 10SM CLR M02/M04 A3030 RMK AO2 SLP263 I1000 T10221044,44.4683,-73.1499,-2.2,-4.4,0,0,,10+,30.3,VFR,clear,
2024-03-08T10:54:00Z,KBTV,KBTV 081054Z 00000KT 10SM CLR M03/M05 A3031 RMK AO2 SLP269 T10331050,44.4683,-73.1499,-3.3,-5,0,0,,10+,30.31,VFR,clear,
2024-03-08T11:54:00Z,KBTV,KBTV 081154Z 36003KT 10SM OVC007 M01/M03 A3033 RMK AO2 SLP276 I6000 T10111033 11006 21033 53017,44.4683,-73.1499,-1.1,-3.3,360,3,,10+,30.33,IFR,overcast,700
2024-03-08T12:54:00Z,KBTV,KBTV 081254Z 01005KT 10SM BKN006 M01/M03 A3035 RMK AO2 SLP281 T10111028,44.4683,-73.1499,-1.1,-2.8,10,5,,10+,30.35,IFR,broken ,600
2024-03-08T13:54:00Z,KBTV,KBTV 081354Z 31005KT 10SM BKN006 00/M02 A3036 RMK AO2 SLP286 MTNS OBSCD E T00001022,44.4683,-73.1499,0,-2.2,310,5,,10+,30.36,IFR,broken ,600
2024-03-08T14:54:00Z,KBTV,KBTV 081454Z 00000KT 10SM FEW008 02/M02 A3036 RMK AO2 SLP285 VCFG E T00171022 50009,44.4683,-73.1499,1.7,-2.2,0,0,,10+,30.36,VFR,a few ,800
2024-03-08T15:54:00Z,KBTV,KBTV 081554Z VRB03KT 10SM CLR 04/M02 A3035 RMK AO2 SLP282 T00391017,44.4683,-73.1499,3.9,-1.7,VRB,3,,10+,30.35,VFR,clear,
2024-03-08T16:54:00Z,KBTV,KBTV 081654Z 00000KT 10SM CLR 07/M03 A3033 RMK AO2 SLP275 T00671033,44.4683,-73.1499,6.7,-3.3,0,0,,10+,30.33,VFR,clear,
2024-03-08T17:54:00Z,KBTV,KBTV 081754Z 31004KT 10SM CLR 08/M03 A3031 RMK AO2 SLP265 T00831028 10083 21017 58018,44.4683,-73.1499,8.3,-2.8,310,4,,10+,30.31,VFR,clear,
2024-03-08T18:54:00Z,KBTV,KBTV 081854Z 32007KT 10SM SCT200 09/M03 A3029 RMK AO2 SLP259 T00891028,44.4683,-73.1499,8.9,-2.8,320,7,,10+,30.29,VFR,scattered ,20000
2024-03-08T19:54:00Z,KBTV,KBTV 081954Z 34006KT 10SM BKN200 09/M02 A3028 RMK AO2 SLP256 T00941022,44.4683,-73.1499,9.4,-2.2,340,6,,10+,30.28,VFR,broken ,20000
2024-03-08T20:54:00Z,KBTV,KBTV 082054Z 01005KT 10SM SCT200 09/M03 A3025 RMK AO2 SLP249 T00941033 58017,44.4683,-73.1499,9.4,-3.3,10,5,,10+,30.25,VFR,scattered ,20000
2024-03-08T21:54:00Z,KBTV,KBTV 082154Z 32004KT 10SM BKN250 09/M03 A3025 RMK AO2 SLP248 T00891028,44.4683,-73.1499,8.9,-2.8,320,4,,10+,30.25,VFR,broken ,25000
2024-03-08T22:54:00Z,KBTV,KBTV 082254Z 31004KT 10SM FEW150 07/M02 A3025 RMK AO2 SLP247 T00671022,44.4683,-73.1499,6.7,-2.2,310,4,,10+,30.25,VFR,a few ,15000
2024-03-08T23:54:00Z,KBTV,KBTV 082354Z 20003KT 10SM CLR 04/M02 A3025 RMK AO2 SLP246 T00391022 10100 20039 58003,44.4683,-73.1499,3.9,-2.2,200,3,,10+,30.25,VFR,clear,
2024-03-09T00:54:00Z,KBTV,KBTV 090054Z 00000KT 10SM CLR 03/M02 A3025 RMK AO2 SLP246 T00331022,44.4683,-73.1499,3.3,-2.2,0,0,,10+,30.25,VFR,clear,
2024-03-09T01:54:00Z,KBTV,KBTV 090154Z 11003KT 10SM CLR 02/M02 A3022 RMK AO2 SLP239 T00171022,44.4683,-73.1499,1.7,-2.2,110,3,,10+,30.22,VFR,clear,
2024-03-09T02:54:00Z,KBTV,KBTV 090254Z 19003KT 10SM CLR 01/M03 A3021 RMK AO2 SLP234 T00061028 58013,44.4683,-73.1499,0.6,-2.8,190,3,,10+,30.21,VFR,clear,
2024-03-09T03:54:00Z,KBTV,KBTV 090354Z 19006KT 10SM CLR 00/M03 A3022 RMK AO2 SLP236 T00001028,44.4683,-73.1499,0,-2.8,190,6,,10+,30.22,VFR,clear,
2024-03-09T04:54:00Z,KBTV,KBTV 090454Z 17006KT 10SM CLR 01/M03 A3020 RMK AO2 SLP229 /LAST/ T00111028 401001033,44.4683,-73.1499,1.1,-2.8,170,6,,10+,30.2,VFR,clear,
2024-03-09T05:54:00Z,KBTV,KBTV 090554Z AUTO 14006KT 10SM CLR 03/M03 A3019 RMK AO2 SLP225 T00281033 10039 20000 58007,44.4683,-73.1499,2.8,-3.3,140,6,,10+,30.19,VFR,clear,
2024-03-09T06:54:00Z,KBTV,KBTV 090654Z AUTO 16007KT 10SM CLR 04/M04 A3017 RMK AO2 SLP221 T00391039,44.4683,-73.1499,3.9,-3.9,160,7,,10+,30.17,VFR,clear,
2024-03-09T07:54:00Z,KBTV,KBTV 090754Z AUTO 14005KT 10SM CLR 04/M04 A3014 RMK AO2 SLP209 T00391044,44.4683,-73.1499,3.9,-4.4,140,5,,10+,30.14,VFR,clear,
2024-03-09T08:54:00Z,KBTV,KBTV 090854Z AUTO 18011G19KT 10SM CLR 04/M04 A3015 RMK AO2 SLP213 T00441044 55012,44.4683,-73.1499,4.4,-4.4,180,11,19,10+,30.15,VFR,clear,
2024-03-09T09:54:00Z,KBTV,KBTV 090954Z AUTO 17011KT 10SM CLR 04/M05 A3014 RMK AO2 SLP210 T00441050,44.4683,-73.1499,4.4,-5,170,11,,10+,30.14,VFR,clear,
2024-03-09T10:54:00Z,KBTV,KBTV 091054Z 18007KT 10SM BKN150 04/M07 A3011 RMK AO2 SLP200 T00441067,44.4683,-73.1499,4.4,-6.7,180,7,,10+,30.11,VFR,broken ,15000
2024-03-09T11:54:00Z,KBTV,KBTV 091154Z 17009KT 10SM OVC150 04/M07 A3012 RMK AO2 SLP202 T00441072 10050 20011 55012,44.4683,-73.1499,4.4,-7.2,170,9,,10+,30.12,VFR,overcast,15000
2024-03-09T12:54:00Z,KBTV,KBTV 091254Z 18009KT 10SM OVC120 05/M07 A3011 RMK AO2 SLP198 T00501067,44.4683,-73.1499,5,-6.7,180,9,,10+,30.11,VFR,overcast,12000
2024-03-09T13:54:00Z,KBTV,KBTV 091354Z 19014G25KT 10SM OVC120 05/M06 A3009 RMK AO2 SLP193 T00501061,44.4683,-73.1499,5,-6.1,190,14,25,10+,30.09,VFR,overcast,12000
2024-03-09T14:54:00Z,KBTV,KBTV 091454Z 18014KT 10SM OVC120 06/M06 A3007 RMK AO2 SLP186 T00561056 58017,44.4683,-73.1499,5.6,-5.6,180,14,,10+,30.07,VFR,overcast,12000
2024-03-09T15:54:00Z,KBTV,KBTV 091554Z 17009KT 10SM OVC120 07/M06 A3003 RMK AO2 SLP174 T00671056,44.4683,-73.1499,6.7,-5.6,170,9,,10+,30.03,VFR,overcast,12000
2024-03-09T16:54:00Z,KBTV,KBTV 091654Z 15012G20KT 10SM OVC120 08/M05 A3000 RMK AO2 SLP160 T00781050,44.4683,-73.1499,7.8,-5,150,12,20,10+,30,VFR,overcast,12000
2024-03-09T17:54:00Z,KBTV,KBTV 091754Z 17010G20KT 10SM FEW050 OVC110 08/M06 A2996 RMK AO2 PK WND 18027/1739 SLP149 T00831061 10083 20044 57036,44.4683,-73.1499,8.3,-6.1,170,10,20,10+,29.96,VFR,a few ,5000
2024-03-09T18:54:00Z,KBTV,KBTV 091854Z 14015G24KT 10SM FEW050 OVC090 08/M03 A2991 RMK AO2 PK WND 17026/1800 SLP132 T00831033,44.4683,-73.1499,8.3,-3.3,140,15,24,10+,29.91,VFR,a few ,5000
2024-03-09T19:54:00Z,KBTV,KBTV 091954Z 14015G23KT 10SM FEW060 BKN090 OVC110 08/M03 A2987 RMK AO2 PK WND 14026/1903 SLP116 T00831033,44.4683,-73.1499,8.3,-3.3,140,15,23,10+,29.87,VFR,a few ,6000
2024-03-09T20:54:00Z,KBTV,KBTV 092054Z 16010KT 10SM FEW050 FEW075 OVC100 08/M02 A2986 RMK AO2 PK WND 14027/2017 RAB28E50 SLP113 VCSH P0000 60000 T00781022 56035,44.4683,-73.1499,7.8,-2.2,160,10,,10+,29.86,VFR,a few ,5000
2024-03-09T21:54:00Z,KBTV,KBTV 092154Z 19021G34KT 10SM -RA FEW040 BKN080 OVC095 07/M02 A2986 RMK AO2 PK WND 18034/2145 RAB40 SLP114 P0000 T00721017,44.4683,-73.1499,7.2,-1.7,190,21,34,10+,29.86,VFR,a few ,4000
2024-03-09T22:54:00Z,KBTV,KBTV 092254Z 14014G22KT 10SM -RA BKN026 BKN031 OVC037 05/01 A2986 RMK AO2 PK WND 19032/2156 SLP113 CLDS OBSCG MTNS E-S P0001 T00500006,44.4683,-73.1499,5,0.6,140,14,22,10+,29.86,MVFR,broken ,2600
2024-02-28T23:54:00Z,KBTV,KBTV 282354Z 21013G29KT 10SM BKN020 OVC027 15/11 A2923 RMK AO2 PK WND 20030/2329 SLP899 T01500111 10156 20144 58013,44.4683,-73.1499,15,11.1,210,13,29,10+,29.23,MVFR,broken ,2000
2024-02-29T00:54:00Z,KBTV,KBTV 290054Z 29013G23KT 250V320 10SM -RA BKN046 OVC055 07/02 A2939 RMK AO2 PK WND 24034/0005 WSHFT 2357 RAB08 SLP954 P0008 T00720022,44.4683,-73.1499,7.2,2.2,290,13,23,10+,29.39,VFR,broken ,4600
2024-02-29T01:54:00Z,KBTV,KBTV 290154Z 24007KT 9SM -RA FEW028 OVC039 05/01 A2948 RMK AO2 PK WND 27030/0055 SLP984 P0005 T00500011,44.4683,-73.1499,5,1.1,240,7,,9,29.48,VFR,a few ,2800
2024-02-29T02:54:00Z,KBTV,KBTV 290254Z 29014G18KT 10SM FEW046 BKN055 OVC075 04/M03 A2958 RMK AO2 RAE39 PRESRR SLP017 P0001 60014 T00441028 51115,44.4683,-73.1499,4.4,-2.8,290,14,18,10+,29.58,VFR,a few ,4600
2024-02-29T03:54:00Z,KBTV,KBTV 290354Z 26018G30KT 9SM -SN SCT060 OVC110 02/M08 A2966 RMK AO2 PK WND 27032/0341 SNB03 SLP045 P0000 T00171083,44.4683,-73.1499,1.7,-8.3,260,18,30,9,29.66,VFR,scattered ,6000
2024-02-29T04:54:00Z,KBTV,KBTV 290454Z COR 26017G28KT 10SM SCT047 BKN070 M01/M09 A2971 RMK AO2 PK WND 24031/0409 SNE03 SLP064 P0000 T10061094 401561006,44.4683,-73.1499,-0.6,-9.4,260,17,28,10+,29.71,VFR,scattered ,4700
2024-02-29T05:54:00Z,KBTV,KBTV 290554Z AUTO 28019G30KT 10SM FEW046 SCT055 M03/M12 A2981 RMK AO2 PK WND 27043/0522 SNB01E22 PRESRR SLP097 P0000 60014 T10331117 10150 21033 53078,44.4683,-73.1499,-3.3,-11.7,280,19,30,10+,29.81,VFR,a few ,4600
2024-02-29T06:54:00Z,KBTV,KBTV 290654Z AUTO 32021G28KT 9SM BKN022 BKN031 OVC038 M07/M13 A2988 RMK AO2 PK WND 29031/0602 UPB12E14SNB14E50 SLP122 P0000 T10671133,44.4683,-73.1499,-6.7,-13.3,320,21,28,9,29.88,MVFR,broken ,2200
2024-02-29T07:54:00Z,KBTV,KBTV 290754Z AUTO 32013G20KT 10SM CLR M08/M15 A2994 RMK AO2 PK WND 32033/0658 SLP140 T10781150,44.4683,-73.1499,-7.8,-15,320,13,20,10+,29.94,VFR,clear,
2024-02-29T08:54:00Z,KBTV,KBTV 290854Z AUTO 31009G19KT 10SM FEW036 M08/M15 A2998 RMK AO2 SLP154 60000 T10831150 51056,44.4683,-73.1499,-8.3,-15,310,9,19,10+,29.98,VFR,a few ,3600
2024-02-29T09:54:00Z,KBTV,KBTV 290954Z AUTO 29010G23KT 10SM BKN035 M08/M17 A3000 RMK AO2 SLP163 T10831167,44.4683,-73.1499,-8.3,-16.7,290,10,23,10+,30,VFR,broken ,3500
2024-02-29T10:54:00Z,KBTV,KBTV 291054Z 30011G23KT 10SM FEW041 M09/M17 A3003 RMK AO2 SLP173 T10891172,44.4683,-73.1499,-8.9,-17.2,300,11,23,10+,30.03,VFR,a few ,4100
2024-02-29T11:54:00Z,KBTV,KBTV 291154Z 29010G25KT 260V320 10SM FEW040 M09/M17 A3006 RMK AO2 SLP182 60000 70014 T10891172 11033 21089 51028,44.4683,-73.1499,-8.9,-17.2,290,10,25,10+,30.06,VFR,a few ,4000
2024-02-29T12:54:00Z,KBTV,KBTV 291254Z 29010G26KT 10SM FEW040 M08/M17 A3009 RMK AO2 PK WND 27030/1223 SLP193 T10781172,44.4683,-73.1499,-7.8,-17.2,290,10,26,10+,30.09,VFR,a few ,4000
2024-02-29T13:54:00Z,KBTV,KBTV 291354Z 30020G26KT 10SM FEW045 FEW200 M07/M19 A3012 RMK AO2 PK WND 28030/1322 SLP205 T10721189,44.4683,-73.1499,-7.2,-18.9,300,20,26,10+,30.12,VFR,a few ,4500
2024-02-29T14:54:00Z,KBTV,KBTV 291454Z 29015G23KT 10SM FEW060 BKN075 M06/M20 A3015 RMK AO2 PK WND 30026/1429 SLP215 T10611200 51031,44.4683,-73.1499,-6.1,-20,290,15,23,10+,30.15,VFR,a few ,6000
2024-02-29T15:54:00Z,KBTV,KBTV 291554Z 28021G31KT 10SM SCT065 BKN080 BKN090 M06/M21 A3016 RMK AO2 PK WND 32032/1529 SLP217 T10611211,44.4683,-73.1499,-6.1,-21.1,280,21,31,10+,30.16,VFR,scattered ,6500
2024-02-29T16:54:00Z,KBTV,KBTV 291654Z 30019G28KT 10SM FEW060 BKN075 BKN090 M06/M21 A3017 RMK AO2 PK WND 28030/1636 SLP221 T10611206,44.4683,-73.1499,-6.1,-20.6,300,19,28,10+,30.17,VFR,a few ,6000
2024-02-29T17:54:00Z,KBTV,KBTV 291754Z 28011G22KT 10SM BKN070 BKN080 M06/M19 A3016 RMK AO2 SLP219 T10561194 11050 21089 50003,44.4683,-73.1499,-5.6,-19.4,280,11,22,10+,30.16,VFR,broken ,7000
2024-02-29T18:54:00Z,KBTV,KBTV 291854Z 28020G29KT 10SM BKN060 BKN075 M06/M19 A3016 RMK AO2 PK WND 30029/1853 WSHFT 1749 SLP218 T10611194,44.4683,-73.1499,-6.1,-19.4,280,20,29,10+,30.16,VFR,broken ,6000
2024-02-29T19:54:00Z,KBTV,KBTV 291954Z 31017G26KT 10SM BKN065 BKN080 M06/M20 A3017 RMK AO2 PK WND 30029/1924 SLP223 T10561200,44.4683,-73.1499,-5.6,-20,310,17,26,10+,30.17,VFR,broken ,6500
2024-02-29T20:54:00Z,KBTV,KBTV 292054Z 30020G33KT 10SM BKN065 BKN080 M06/M20 A3019 RMK AO2 PK WND 32033/2052 SLP231 T10611200 53010,44.4683,-73.1499,-6.1,-20,300,20,33,10+,30.19,VFR,broken ,6500
2024-02-29T21:54:00Z,KBTV,KBTV 292154Z 30019G28KT 10SM BKN060 BKN080 M06/M21 A3022 RMK AO2 PK WND 29028/2144 SLP241 T10561206,44.4683,-73.1499,-5.6,-20.6,300,19,28,10+,30.22,VFR,broken ,6000
2024-02-29T22:54:00Z,KBTV,KBTV 292254Z 30014G26KT 10SM BKN065 OVC080 M06/M21 A3025 RMK AO2 PK WND 30030/2200 SLP249 T10611206,44.4683,-73.1499,-6.1,-20.6,300,14,26,10+,30.25,VFR,broken ,6500
2024-03-09T23:54:00Z,KBTV,KBTV 092354Z 15010KT 10SM -RA BKN017 BKN030 OVC037 04/01 A2984 RMK AO2 SLP108 P0001 60002 T00390011 10089 20039 58005,44.4683,-73.1499,3.9,1.1,150,10,,10+,29.84,MVFR,broken ,1700
2024-03-10T00:54:00Z,KBTV,KBTV 100054Z 18007KT 10SM -RA OVC013 03/01 A2982 RMK AO2 SLP101 P0003 T00330011,44.4683,-73.1499,3.3,1.1,180,7,,10+,29.82,MVFR,overcast,1300
2024-03-10T01:54:00Z,KBTV,KBTV 100154Z 19008KT 6SM -RA BR FEW009 OVC017 03/01 A2979 RMK AO2 SLP090 P0003 T00280011,44.4683,-73.1499,2.8,1.1,190,8,,6,29.79,MVFR,a few ,900
2024-03-10T02:54:00Z,KBTV,KBTV 100254Z 20006KT 6SM -RA BR OVC060 03/01 A2973 RMK AO2 SLP070 P0004 60010 T00280011 58037,44.4683,-73.1499,2.8,1.1,200,6,,6,29.73,VFR,overcast,6000
2024-03-10T03:54:00Z,KBTV,KBTV 100354Z 20005KT 10SM -RA FEW023 BKN065 OVC080 02/01 A2969 RMK AO2 PRESFR SLP058 P0002 T00220011,44.4683,-73.1499,2.2,1.1,200,5,,10+,29.69,VFR,a few ,2300
2024-03-10T04:54:00Z,KBTV,KBTV 100454Z 20004KT 6SM -RA BR OVC050 02/01 A2966 RMK AO2 SLP046 /LAST/ P0006 T00220011 400890000,44.4683,-73.1499,2.2,1.1,200,4,,6,29.66,VFR,overcast,5000
2024-03-10T05:54:00Z,KBTV,KBTV 100554Z 16009KT 6SM RA BR FEW019 OVC028 03/01 A2962 RMK AO2 SLP033 P0014 60032 T00280006 10039 20017 58026,44.4683,-73.1499,2.8,0.6,160,9,,6,29.62,MVFR,a few ,1900
2024-03-10T06:54:00Z,KBTV,KBTV 100654Z 10006KT 7SM RA FEW019 OVC046 02/01 A2957 RMK AO2 SLP015 P0006 T00170006,44.4683,-73.1499,1.7,0.6,100,6,,7,29.57,VFR,a few ,1900
2024-03-10T07:54:00Z,KBTV,KBTV 100754Z 28008KT 3SM -SN BR OVC017 01/M01 A2953 RMK AO2 RAE10SNB10 SLP001 P0012 T00061006,44.4683,-73.1499,0.6,-0.6,280,8,,3,29.53,MVFR,overcast,1700
2024-03-10T08:54:00Z,KBTV,KBTV 100854Z 00000KT 2SM -SN BR SCT003 BKN007 OVC016 01/M01 A2950 RMK AO2 SLP993 P0005 60023 T00061006 56040,44.4683,-73.1499,0.6,-0.6,0,0,,2,29.5,IFR,scattered ,300
2024-03-10T09:54:00Z,KBTV,KBTV 100954Z 08003KT 3/4SM R15/P6000FT -SN BR OVC025 01/00 A2946 RMK AO2 SLP979 P0002 T00060000,44.4683,-73.1499,0.6,0,80,3,,0.75,29.46,LIFR,overcast,2500
2024-03-10T10:54:00Z,KBTV,KBTV 101054Z 00000KT 4SM -SN BR OVC040 01/00 A2943 RMK AO2 SLP969 P0002 T00060000,44.4683,-73.1499,0.6,0,0,0,,4,29.43,MVFR,overcast,4000
2024-03-10T11:54:00Z,KBTV,KBTV 101154Z 00000KT 1SM R15/P6000FT -SN BR OVC031 01/00 A2940 RMK AO2 SLP958 4/001 P0002 60029 70063 T00110000 10011 20006 56035,44.4683,-73.1499,1.1,0,0,0,,1,29.4,IFR,overcast,3100
2024-03-10T12:59:00Z,KBTV,KBTV 101259Z 00000KT 2 1/2SM -SN BR OVC025 01/01 A2937 RMK AO2 P0000 T00110011,44.4683,-73.1499,1.1,1.1,0,0,,2.5,29.37,IFR,overcast,2500
2024-03-10T13:59:00Z,KBTV,KBTV 101359Z 00000KT 3SM -SN BR FEW005 OVC019 02/01 A2934 RMK AO2 P0000 T00170006,44.4683,-73.1499,1.7,0.6,0,0,,3,29.34,MVFR,a few ,500
2024-03-10T14:59:00Z,KBTV,KBTV 101459Z 33004KT 2 1/2SM BR BKN006 OVC011 02/01 A2932 RMK AO2 RAE53 P0000 T00220006,44.4683,-73.1499,2.2,0.6,330,4,,2.5,29.32,IFR,broken ,600
2024-03-10T15:54:00Z,KBTV,KBTV 101554Z 34004KT 2 1/2SM -RA BR BKN005 OVC010 02/01 A2930 RMK AO2 RAE1453B31 CIG 004V009 SLP926 P0000 T00220006,44.4683,-73.1499,2.2,0.6,340,4,,2.5,29.3,IFR,broken ,500
2024-03-10T16:54:00Z,KBTV,KBTV 101654Z COR 28003KT 2 1/2SM -RA BR SCT006 OVC014 03/01 A2929 RMK AO2 SLP922 SNB28E44 P0001 T00280011,44.4683,-73.1499,2.8,1.1,280,3,,2.5,29.29,IFR,scattered ,600
2024-03-10T17:54:00Z,KBTV,KBTV 101754Z 19005KT 6SM -RA BR OVC007 03/02 A2927 RMK AO2 RAE10B46 SLP916 P0000 60005 T00330017 10033 20006 58010,44.4683,-73.1499,3.3,1.7,190,5,,6,29.27,IFR,overcast,700
2024-03-10T18:54:00Z,KBTV,KBTV 101854Z VRB03KT 4SM -RA BR BKN006 BKN010 OVC016 03/02 A2927 RMK AO2 SLP913 P0004 T00330022,44.4683,-73.1499,3.3,2.2,VRB,3,,4,29.27,IFR,broken ,600
2024-03-10T19:54:00Z,KBTV,KBTV 101954Z 29009KT 9SM -RA FEW006 BKN017 OVC029 03/01 A2927 RMK AO2 SLP915 P0001 T00330011,44.4683,-73.1499,3.3,1.1,290,9,,9,29.27,MVFR,a few ,600
2024-03-10T20:54:00Z,KBTV,KBTV 102054Z 31010G18KT 10SM -RA OVC042 03/00 A2928 RMK AO2 SLP918 P0002 60007 T00280000 53002,44.4683,-73.1499,2.8,0,310,10,18,10+,29.28,VFR,overcast,4200
2024-03-10T21:54:00Z,KBTV,KBTV 102154Z 31008KT 10SM FEW033 OVC049 03/M01 A2929 RMK AO2 RAE31 SLP922 P0000 T00331006,44.4683,-73.1499,3.3,-0.6,310,8,,10+,29.29,VFR,a few ,3300
2024-03-10T22:54:00Z,KBTV,KBTV 102254Z 31010KT 6SM -SN BR BKN028 OVC033 02/M01 A2931 RMK AO2 SLP928 SNE39B49 P0000 T00171011,44.4683,-73.1499,1.7,-1.1,310,10,,6,29.31,MVFR,broken ,2800
